{
  "type": "FeatureCollection",
  "features": [
    {
      "type": "Feature",
      "properties": {
        "iso3": "KEN",
        "name": "Kenya",
        "layer": "boundary",
        "geometry_quality": "authoritative",
        "geometry_source": "geo/countries_manifest.json + geo/countries_topojson/*.topo.json"
      },
      "geometry": {
        "type": "Polygon",
        "coordinates": [
          [
            [
              34.94359809,
              4.62022527
            ],
            [
              35.50873619,
              4.62
            ],
            [
              35.9477,
              4.62
            ],
            [
              35.9452898,
              4.54645344
            ],
            [
              36.05009133,
              4.45690749
            ],
            [
              36.78681758,
              4.44954829
            ],
            [
              37.10331713,
              4.32809455
            ],
            [
              38.05082231,
              3.67576581
            ],
            [
              38.18164691,
              3.62485233
            ],
            [
              39.02086439,
              3.52423517
            ],
            [
              39.56052448,
              3.42268891
            ],
            [
              39.75001964,
              3.65061583
            ],
            [
              39.86584248,
              3.8705565
            ],
            [
              40.20474799,
              4.04616648
            ],
            [
              40.75062281,
              4.27636546
            ],
            [
              40.834727,
              4.252152
            ],
            [
              40.958361,
              4.140966
            ],
            [
              41.345728,
              3.947917
            ],
            [
              41.821807,
              3.949065
            ],
            [
              41.910119,
              3.98275556
            ],
            [
              41.38431608,
              3.22998597
            ],
            [
              40.99565,
              2.822
            ],
            [
              40.99565,
              -0.78017761
            ],
            [
              41.48640493,
              -1.49630789
            ],
            [
              41.564494,
              -1.66443056
            ],
            [
              41.32773209,
              -1.93485904
            ],
            [
              41.03840637,
              -2.04424596
            ],
            [
              40.48379517,
              -2.53121495
            ],
            [
              40.31492615,
              -2.60797501
            ],
            [
              40.22915268,
              -2.6888051
            ],
            [
              40.17555618,
              -2.78591299
            ],
            [
              40.10831451,
              -3.30171204
            ],
            [
              39.66329956,
              -4.01195717
            ],
            [
              39.59132767,
              -4.04107523
            ],
            [
              39.65381622,
              -4.13768721
            ],
            [
              39.46871948,
              -4.52072096
            ],
            [
              39.43982696,
              -4.52206898
            ],
            [
              39.20608837,
              -4.6795983
            ],
            [
              37.7842972,
              -3.6771801
            ],
            [
              37.60937645,
              -3.50465745
            ],
            [
              37.58647222,
              -3.44133333
            ],
            [
              37.71330556,
              -3.31208333
            ],
            [
              37.67375,
              -3.0615
            ],
            [
              34.22345665,
              -1.10358038
            ],
            [
              34.01901219,
              -0.9996563
            ],
            [
              33.92961827,
              -0.99587404
            ],
            [
              33.92932274,
              -0.53973848
            ],
            [
              33.99763495,
              0.22342708
            ],
            [
              34.09425843,
              0.46075178
            ],
            [
              34.47960624,
              0.93439484
            ],
            [
              34.94704696,
              1.57779314
            ],
            [
              34.99198496,
              1.66163018
            ],
            [
              35.00101789,
              1.75873245
            ],
            [
              35.00095098,
              1.95968319
            ],
            [
              34.87909363,
              2.56968037
            ],
            [
              34.78399732,
              2.73684926
            ],
            [
              34.65015766,
              2.87528646
            ],
            [
              34.45232961,
              3.23245776
            ],
            [
              34.40608339,
              3.36378992
            ],
            [
              34.42551921,
              3.48900238
            ],
            [
              34.32623806,
              3.7253812
            ],
            [
              34.08097432,
              4.03175575
            ],
            [
              33.99487739,
              4.22789172
            ],
            [
              34.37846,
              4.62
            ],
            [
              34.94359809,
              4.62022527
            ]
          ]
        ]
      }
    }
  ]
}
