{
  "type": "FeatureCollection",
  "features": [
    {
      "type": "Feature",
      "properties": {
        "name": "BLZ Territory 1",
        "layer": "protected_governed",
        "source": "Supplemental GeoJSON prepared outside the PDF for storytelling"
      },
      "geometry": {
        "type": "Polygon",
        "coordinates": [
          [
            [
              -89.0,
              16.8
            ],
            [
              -88.0,
              16.8
            ],
            [
              -88.0,
              17.7
            ],
            [
              -89.0,
              17.7
            ],
            [
              -89.0,
              16.8
            ]
          ]
        ]
      }
    }
  ]
}