{
  "type": "FeatureCollection",
  "features": [
    {
      "type": "Feature",
      "properties": {
        "name": "MLI Territory 1",
        "layer": "protected_governed",
        "source": "Supplemental GeoJSON prepared outside the PDF for storytelling"
      },
      "geometry": {
        "type": "Polygon",
        "coordinates": [
          [
            [
              -6.3,
              13.4
            ],
            [
              -3.8,
              13.4
            ],
            [
              -3.8,
              15.2
            ],
            [
              -6.3,
              15.2
            ],
            [
              -6.3,
              13.4
            ]
          ]
        ]
      }
    }
  ]
}