{
  "type": "FeatureCollection",
  "features": [
    {
      "type": "Feature",
      "properties": {
        "iso3": "PAN",
        "name": "Panama",
        "layer": "boundary",
        "geometry_quality": "authoritative",
        "geometry_source": "data/source/geo/countries_manifest.json + data/source/geo/countries_topojson/*.topo.json"
      },
      "geometry": {
        "type": "MultiPolygon",
        "coordinates": [
          [
            [
              [
                -82.25138092,
                9.0255003
              ],
              [
                -82.0732287,
                8.92688895
              ],
              [
                -81.81246185,
                8.93862343
              ],
              [
                -81.61947632,
                8.89532471
              ],
              [
                -81.50684357,
                8.79605866
              ],
              [
                -81.30691528,
                8.77796555
              ],
              [
                -80.97864533,
                8.83930397
              ],
              [
                -80.42325592,
                9.13843632
              ],
              [
                -80.04456269,
                9.28994238
              ],
              [
                -79.85247,
                9.130817
              ],
              [
                -79.693794,
                9.104752
              ],
              [
                -79.578369,
                8.97509
              ],
              [
                -79.56142425,
                8.9017868
              ],
              [
                -79.7082901,
                8.89200401
              ],
              [
                -79.76665497,
                8.79562092
              ],
              [
                -79.75341797,
                8.61478138
              ],
              [
                -80.17883301,
                8.33202648
              ],
              [
                -80.24222565,
                8.30145931
              ],
              [
                -80.35561371,
                8.29893398
              ],
              [
                -80.39655304,
                7.99588585
              ],
              [
                -80.05809021,
                7.63927698
              ],
              [
                -79.99526215,
                7.50523901
              ],
              [
                -80.02049255,
                7.45067597
              ],
              [
                -80.43901825,
                7.23834801
              ],
              [
                -80.71304321,
                7.20624971
              ],
              [
                -80.88967133,
                7.21881008
              ],
              [
                -80.93604279,
                7.26467609
              ],
              [
                -81.06011963,
                7.88231993
              ],
              [
                -81.11489105,
                7.91809702
              ],
              [
                -81.20185852,
                7.87150288
              ],
              [
                -81.20251465,
                7.68415403
              ],
              [
                -81.48999786,
                7.75329113
              ],
              [
                -81.74957275,
                8.19381809
              ],
              [
                -81.90106201,
                8.18369198
              ],
              [
                -82.1137085,
                8.22172833
              ],
              [
                -82.20119476,
                8.24770928
              ],
              [
                -82.20623016,
                8.2824831
              ],
              [
                -82.2818222,
                8.33872223
              ],
              [
                -82.64861903,
                8.32542029
              ],
              [
                -82.90045357,
                8.0400805
              ],
              [
                -82.87628838,
                8.6969051
              ],
              [
                -82.93436053,
                9.20000021
              ],
              [
                -82.93421333,
                9.47490018
              ],
              [
                -82.86380145,
                9.51833862
              ],
              [
                -82.60039693,
                9.53008101
              ],
              [
                -82.56386979,
                9.57250657
              ],
              [
                -82.37400818,
                9.41523552
              ],
              [
                -82.35814667,
                9.20671272
              ],
              [
                -82.25138092,
                9.0255003
              ]
            ]
          ],
          [
            [
              [
                -81.60639954,
                7.35598707
              ],
              [
                -81.61317444,
                7.3206501
              ],
              [
                -81.74321747,
                7.34362316
              ],
              [
                -81.86334228,
                7.44810009
              ],
              [
                -81.88661194,
                7.50986195
              ],
              [
                -81.76173401,
                7.63689804
              ],
              [
                -81.73719788,
                7.62716198
              ],
              [
                -81.60639954,
                7.35598707
              ]
            ]
          ],
          [
            [
              [
                -78.54795837,
                9.43400478
              ],
              [
                -78.19184876,
                9.27259064
              ],
              [
                -77.91769409,
                9.11246109
              ],
              [
                -77.55510712,
                8.7196703
              ],
              [
                -77.36980435,
                8.67543622
              ],
              [
                -77.35243506,
                8.32641726
              ],
              [
                -77.16394309,
                7.96842089
              ],
              [
                -77.36594463,
                7.8245468
              ],
              [
                -77.61052429,
                7.55221213
              ],
              [
                -77.79235929,
                7.48097992
              ],
              [
                -77.8931719,
                7.22131902
              ],
              [
                -78.18387604,
                7.53938389
              ],
              [
                -78.42241669,
                7.97547293
              ],
              [
                -78.44577026,
                8.06240273
              ],
              [
                -78.30767059,
                8.25464439
              ],
              [
                -78.18048859,
                8.34893894
              ],
              [
                -77.77832031,
                8.11797714
              ],
              [
                -77.84751892,
                8.2015295
              ],
              [
                -78.22455597,
                8.5380373
              ],
              [
                -78.37001038,
                8.39531708
              ],
              [
                -78.52664184,
                8.55671406
              ],
              [
                -78.57539368,
                8.65869236
              ],
              [
                -78.91339874,
                8.92058277
              ],
              [
                -79.15961456,
                9.01132679
              ],
              [
                -79.35534668,
                9.02528191
              ],
              [
                -79.49053192,
                9.00036335
              ],
              [
                -79.798256,
                9.187881
              ],
              [
                -79.81089,
                9.340083
              ],
              [
                -79.94252,
                9.28626
              ],
              [
                -80.0059967,
                9.32578373
              ],
              [
                -79.54107666,
                9.63751411
              ],
              [
                -78.71382141,
                9.44134712
              ],
              [
                -78.54795837,
                9.43400478
              ]
            ]
          ]
        ]
      }
    }
  ]
}
