{
  "type": "FeatureCollection",
  "features": [
    {
      "type": "Feature",
      "properties": {
        "name": "PAN Territory 1",
        "layer": "protected_governed",
        "source": "Supplemental GeoJSON prepared outside the PDF for storytelling"
      },
      "geometry": {
        "type": "Polygon",
        "coordinates": [
          [
            [
              -81.1,
              8.2
            ],
            [
              -79.5,
              8.2
            ],
            [
              -79.5,
              9.0
            ],
            [
              -81.1,
              9.0
            ],
            [
              -81.1,
              8.2
            ]
          ]
        ]
      }
    }
  ]
}