{
  "type": "FeatureCollection",
  "features": [
    {
      "type": "Feature",
      "properties": {
        "iso3": "MLI",
        "name": "Mali",
        "layer": "boundary",
        "geometry_quality": "authoritative",
        "geometry_source": "geo/countries_manifest.json + geo/countries_topojson/*.topo.json"
      },
      "geometry": {
        "type": "Polygon",
        "coordinates": [
          [
            [
              4.24298382,
              19.14089478
            ],
            [
              4.23959,
              17.18724751
            ],
            [
              4.07938499,
              16.52899751
            ],
            [
              4.07647,
              16.32042
            ],
            [
              3.90573,
              15.78027
            ],
            [
              3.51830699,
              15.34147371
            ],
            [
              2.78272668,
              15.35727024
            ],
            [
              1.32403,
              15.26514
            ],
            [
              1.03603305,
              15.0316435
            ],
            [
              0.92362,
              14.97224
            ],
            [
              0.71349985,
              14.95324507
            ],
            [
              0.52581553,
              14.99047532
            ],
            [
              0.2407725,
              14.98977307
            ],
            [
              0.23313197,
              14.91625936
            ],
            [
              -0.246214,
              15.077772
            ],
            [
              -0.710942,
              15.082816
            ],
            [
              -1.138335,
              14.771847
            ],
            [
              -1.79364375,
              14.48251836
            ],
            [
              -2.18786941,
              14.19643526
            ],
            [
              -2.474126,
              14.298003
            ],
            [
              -2.852213,
              14.004841
            ],
            [
              -3.25712847,
              13.403797
            ],
            [
              -3.282042,
              13.28702566
            ],
            [
              -3.42742,
              13.20081
            ],
            [
              -3.58769,
              13.20077
            ],
            [
              -3.933716,
              13.42555
            ],
            [
              -4.100642,
              13.356903
            ],
            [
              -4.33370614,
              13.14671358
            ],
            [
              -4.26479,
              12.70655
            ],
            [
              -4.553867,
              12.157883
            ],
            [
              -4.72315804,
              12.02443259
            ],
            [
              -5.05931738,
              11.97887521
            ],
            [
              -5.36031495,
              11.83157265
            ],
            [
              -5.26060168,
              11.73358687
            ],
            [
              -5.19953823,
              11.44187064
            ],
            [
              -5.346713,
              11.125156
            ],
            [
              -5.513207,
              10.430789
            ],
            [
              -5.57284,
              10.45589
            ],
            [
              -5.76401,
              10.43799
            ],
            [
              -5.85918,
              10.37668
            ],
            [
              -5.98453,
              10.19714
            ],
            [
              -6.12603,
              10.20485
            ],
            [
              -6.19132,
              10.2346
            ],
            [
              -6.22996,
              10.29761
            ],
            [
              -6.17906,
              10.50113
            ],
            [
              -6.21528,
              10.71609
            ],
            [
              -6.38944,
              10.70727
            ],
            [
              -6.5816,
              10.62165
            ],
            [
              -6.66811,
              10.46446
            ],
            [
              -7.08123,
              10.180739
            ],
            [
              -7.37395,
              10.26682
            ],
            [
              -7.41674,
              10.34733
            ],
            [
              -7.76221,
              10.31021
            ],
            [
              -7.83547,
              10.21674
            ],
            [
              -7.92459,
              10.15875
            ],
            [
              -7.98120238,
              10.17141349
            ],
            [
              -7.948433,
              10.237495
            ],
            [
              -7.98057,
              10.33424
            ],
            [
              -8.10499,
              10.41051
            ],
            [
              -8.313527,
              10.770851
            ],
            [
              -8.50164,
              11.01009
            ],
            [
              -8.47785997,
              11.251485
            ],
            [
              -8.809879,
              11.833341
            ],
            [
              -8.82642,
              12.03695
            ],
            [
              -8.957999,
              12.356595
            ],
            [
              -9.003565,
              12.400863
            ],
            [
              -9.16044,
              12.48875
            ],
            [
              -9.36724,
              12.48887
            ],
            [
              -9.40237,
              12.46817
            ],
            [
              -9.36507,
              12.42213
            ],
            [
              -9.42217,
              12.2651
            ],
            [
              -9.67961,
              12.10265
            ],
            [
              -9.94162,
              12.10248
            ],
            [
              -10.30699,
              12.22084
            ],
            [
              -10.48086,
              12.12345
            ],
            [
              -11.24445,
              12.00257
            ],
            [
              -11.34217,
              12.04931
            ],
            [
              -11.49481,
              12.18653
            ],
            [
              -11.37557777,
              12.4153114
            ],
            [
              -11.38309038,
              12.99243823
            ],
            [
              -11.53174331,
              13.26248437
            ],
            [
              -11.75074282,
              13.37558071
            ],
            [
              -11.79609603,
              13.31332635
            ],
            [
              -11.83025266,
              13.32061475
            ],
            [
              -12.06217338,
              13.70045284
            ],
            [
              -11.94351932,
              13.93139776
            ],
            [
              -12.02386582,
              14.27739013
            ],
            [
              -12.23976441,
              14.76579239
            ],
            [
              -12.04343,
              14.73524
            ],
            [
              -11.8067,
              14.89173
            ],
            [
              -11.7962,
              14.98124
            ],
            [
              -11.84459,
              15.09391
            ],
            [
              -11.71001,
              15.53179
            ],
            [
              -11.521749,
              15.598443
            ],
            [
              -11.357655,
              15.548861
            ],
            [
              -11.139441,
              15.349915
            ],
            [
              -10.78915,
              15.30745
            ],
            [
              -10.677162,
              15.43437
            ],
            [
              -10.218619,
              15.481241
            ],
            [
              -9.93292196,
              15.45768158
            ],
            [
              -8.99114334,
              15.50082672
            ],
            [
              -5.54547927,
              15.50013759
            ],
            [
              -5.49009014,
              15.54972305
            ],
            [
              -5.33510114,
              16.32452935
            ],
            [
              -5.61435,
              16.5
            ],
            [
              -6.586329,
              25
            ],
            [
              -4.833333,
              25
            ],
            [
              -1.69696225,
              23.00223997
            ],
            [
              1.155722,
              21.12633333
            ],
            [
              1.193194,
              20.97361111
            ],
            [
              1.18458341,
              20.86218057
            ],
            [
              1.666278,
              20.41880556
            ],
            [
              2.085056,
              20.23922222
            ],
            [
              3.234444,
              19.84102778
            ],
            [
              3.232861,
              19.43794444
            ],
            [
              3.126944,
              19.12458333
            ],
            [
              3.34652803,
              18.976139
            ],
            [
              4.24298382,
              19.14089478
            ]
          ]
        ]
      }
    }
  ]
}
