{
  "type": "FeatureCollection",
  "features": [
    {
      "type": "Feature",
      "properties": {
        "iso3": "SUR",
        "name": "Suriname",
        "layer": "boundary",
        "geometry_quality": "authoritative",
        "geometry_source": "data/source/geo/countries_manifest.json + data/source/geo/countries_topojson/*.topo.json"
      },
      "geometry": {
        "type": "Polygon",
        "coordinates": [
          [
            [
              -56.31076431,
              5.90247393
            ],
            [
              -55.92417526,
              5.89657211
            ],
            [
              -55.82717514,
              5.95379496
            ],
            [
              -55.59814835,
              5.98077202
            ],
            [
              -55.36209869,
              5.95817804
            ],
            [
              -55.1051178,
              5.87717629
            ],
            [
              -55.09197617,
              5.89544678
            ],
            [
              -55.15865326,
              5.97359419
            ],
            [
              -55.01557541,
              5.9986372
            ],
            [
              -54.81489944,
              5.98849916
            ],
            [
              -54.31621552,
              5.90322208
            ],
            [
              -54.0242424,
              5.82386112
            ],
            [
              -54.00009155,
              5.76535797
            ],
            [
              -54.00919745,
              5.62013393
            ],
            [
              -54.012936,
              5.53045708
            ],
            [
              -54.41916031,
              5.07121602
            ],
            [
              -54.47115946,
              4.87942693
            ],
            [
              -54.35027831,
              4.04338858
            ],
            [
              -54.02613239,
              3.6396567
            ],
            [
              -53.99482473,
              3.57506493
            ],
            [
              -54.00770182,
              3.46588103
            ],
            [
              -54.20950872,
              2.77558309
            ],
            [
              -54.34492366,
              2.53889025
            ],
            [
              -54.50977076,
              2.35686197
            ],
            [
              -54.5736663,
              2.32999002
            ],
            [
              -54.8036,
              2.44136
            ],
            [
              -55.28745,
              2.51486
            ],
            [
              -55.81683994,
              2.46121683
            ],
            [
              -56.0423,
              2.21131
            ],
            [
              -56.07856195,
              1.8528041
            ],
            [
              -56.47736721,
              1.94594242
            ],
            [
              -56.68761247,
              2.03353632
            ],
            [
              -56.77482508,
              2.14988862
            ],
            [
              -57.21016347,
              2.9420019
            ],
            [
              -57.25485586,
              3.11481247
            ],
            [
              -57.39405818,
              3.36658744
            ],
            [
              -57.77167011,
              3.62857479
            ],
            [
              -58.00373469,
              3.98343586
            ],
            [
              -58.0498701,
              4.15098024
            ],
            [
              -57.92955322,
              4.43872171
            ],
            [
              -57.90918412,
              4.78421255
            ],
            [
              -57.57442626,
              4.99973305
            ],
            [
              -57.30450018,
              5.01491772
            ],
            [
              -57.23345179,
              5.13394685
            ],
            [
              -57.1394537,
              5.81027547
            ],
            [
              -57.06416321,
              5.94946718
            ],
            [
              -56.94384003,
              6.0001502
            ],
            [
              -56.31076431,
              5.90247393
            ]
          ]
        ]
      }
    }
  ]
}
