{
  "type": "FeatureCollection",
  "features": [
    {
      "type": "Feature",
      "properties": {
        "iso3": "GTM",
        "name": "Guatemala",
        "layer": "boundary",
        "geometry_quality": "authoritative",
        "geometry_source": "data/source/geo/countries_manifest.json + data/source/geo/countries_topojson/*.topo.json"
      },
      "geometry": {
        "type": "Polygon",
        "coordinates": [
          [
            [
              -89.151961,
              17.8156931
            ],
            [
              -89.1535363,
              17.00677376
            ],
            [
              -89.215128,
              15.891043
            ],
            [
              -88.941725,
              15.890035
            ],
            [
              -88.79437484,
              15.85950289
            ],
            [
              -88.52787912,
              15.87366551
            ],
            [
              -88.41788942,
              15.84154939
            ],
            [
              -88.23169339,
              15.72455604
            ],
            [
              -88.66038562,
              15.35961688
            ],
            [
              -88.92175313,
              15.17987492
            ],
            [
              -89.15247573,
              15.06546042
            ],
            [
              -89.22437008,
              14.88696391
            ],
            [
              -89.25326766,
              14.56680619
            ],
            [
              -89.35596074,
              14.42045995
            ],
            [
              -89.579164,
              14.398565
            ],
            [
              -89.831772,
              14.061868
            ],
            [
              -90.081545,
              13.874403
            ],
            [
              -90.13466273,
              13.74535525
            ],
            [
              -90.59540413,
              13.91593053
            ],
            [
              -91.06768746,
              13.91476519
            ],
            [
              -91.30986683,
              13.95161258
            ],
            [
              -91.53859513,
              14.04436134
            ],
            [
              -91.76679846,
              14.18183045
            ],
            [
              -92.23113381,
              14.53655047
            ],
            [
              -92.152448,
              14.654238
            ],
            [
              -92.098471,
              15.011088
            ],
            [
              -92.21063866,
              15.2606476
            ],
            [
              -91.73157896,
              16.073898
            ],
            [
              -90.44216915,
              16.0740256
            ],
            [
              -90.431227,
              16.096194
            ],
            [
              -90.427635,
              16.424944
            ],
            [
              -90.862087,
              16.813189
            ],
            [
              -91.417841,
              17.209145
            ],
            [
              -90.98783366,
              17.25130648
            ],
            [
              -90.98783297,
              17.81569517
            ],
            [
              -89.151961,
              17.8156931
            ]
          ]
        ]
      }
    }
  ]
}
