{
  "type": "FeatureCollection",
  "features": [
    {
      "type": "Feature",
      "properties": {
        "iso3": "MMR",
        "name": "Myanmar",
        "layer": "boundary",
        "geometry_quality": "authoritative",
        "geometry_source": "geo/countries_manifest.json + geo/countries_topojson/*.topo.json"
      },
      "geometry": {
        "type": "MultiPolygon",
        "coordinates": [
          [
            [
              [
                94.13689228,
                18.84983924
              ],
              [
                94.13973578,
                18.8600906
              ],
              [
                94.12639365,
                18.86398176
              ],
              [
                94.11344563,
                18.88142381
              ],
              [
                94.06673494,
                19.35989998
              ],
              [
                93.77711596,
                19.58800464
              ],
              [
                93.80742521,
                19.71098546
              ],
              [
                93.77991132,
                19.8678357
              ],
              [
                93.51595971,
                19.99036376
              ],
              [
                93.41423899,
                20.15721357
              ],
              [
                93.21943955,
                20.16966908
              ],
              [
                93.17748942,
                20.19656632
              ],
              [
                93.08522415,
                20.53446272
              ],
              [
                93.03192867,
                20.44787001
              ],
              [
                93.02109469,
                20.38652366
              ],
              [
                92.90877966,
                20.1587705
              ],
              [
                92.78521488,
                20.25945837
              ],
              [
                92.7405567,
                20.57948446
              ],
              [
                92.63749569,
                20.70363455
              ],
              [
                92.64264975,
                20.67797472
              ],
              [
                92.69248232,
                20.59218642
              ],
              [
                92.70683909,
                20.57364273
              ],
              [
                92.73174969,
                20.37309925
              ],
              [
                92.669287,
                20.36977056
              ],
              [
                92.38951641,
                20.71095297
              ],
              [
                92.26489388,
                21.03892347
              ],
              [
                92.25573807,
                21.05198654
              ],
              [
                92.18824253,
                21.19182834
              ],
              [
                92.2344746,
                21.34963797
              ],
              [
                92.34444626,
                21.46132177
              ],
              [
                92.54397569,
                21.37848084
              ],
              [
                92.60972425,
                21.79039617
              ],
              [
                92.60675611,
                21.97120086
              ],
              [
                92.67356033,
                22.01049436
              ],
              [
                92.91307245,
                21.97035911
              ],
              [
                92.99508455,
                22.03112514
              ],
              [
                93.19772053,
                22.27576481
              ],
              [
                93.18439815,
                22.39880592
              ],
              [
                93.11108262,
                22.55417714
              ],
              [
                93.09606312,
                22.79796825
              ],
              [
                93.12669611,
                22.99644629
              ],
              [
                93.21664341,
                23.03183121
              ],
              [
                93.2965777,
                23.01070209
              ],
              [
                93.3645473,
                23.11999654
              ],
              [
                93.42818926,
                23.66604449
              ],
              [
                93.3566589,
                23.9439935
              ],
              [
                93.42405116,
                24.05826984
              ],
              [
                94.0894992,
                23.88658401
              ],
              [
                94.63252173,
                24.80067744
              ],
              [
                94.7379789,
                25.02256396
              ],
              [
                94.74132317,
                25.09446587
              ],
              [
                94.73129035,
                25.1350152
              ],
              [
                94.59083081,
                25.19395805
              ],
              [
                94.58790457,
                25.2687862
              ],
              [
                94.67192947,
                25.44477866
              ],
              [
                94.86547938,
                25.56475452
              ],
              [
                95.0358771,
                25.74010308
              ],
              [
                95.11644571,
                26.16167478
              ],
              [
                95.07440825,
                26.3402758
              ],
              [
                95.08511994,
                26.48768906
              ],
              [
                95.1514304,
                26.61699447
              ],
              [
                95.22182151,
                26.66570715
              ],
              [
                95.48068736,
                26.74502467
              ],
              [
                95.87676486,
                27.01970301
              ],
              [
                96.02545332,
                27.18267373
              ],
              [
                96.22514983,
                27.27729366
              ],
              [
                96.71049142,
                27.37242367
              ],
              [
                96.80154078,
                27.33620796
              ],
              [
                96.8821335,
                27.25969588
              ],
              [
                97.01296915,
                27.31350937
              ],
              [
                96.93110123,
                27.43031781
              ],
              [
                96.89539559,
                27.57543571
              ],
              [
                96.92855082,
                27.64863226
              ],
              [
                97.0633963,
                27.74999306
              ],
              [
                97.09753391,
                27.7494489
              ],
              [
                97.30603132,
                27.91043031
              ],
              [
                97.36816311,
                28.05072791
              ],
              [
                97.34594788,
                28.21562428
              ],
              [
                97.44290936,
                28.28174909
              ],
              [
                97.50966438,
                28.45573489
              ],
              [
                97.72379053,
                28.49249344
              ],
              [
                97.99399375,
                28.2872456
              ],
              [
                98.15906511,
                28.0848216
              ],
              [
                98.15547116,
                27.94122561
              ],
              [
                98.32025726,
                27.52216268
              ],
              [
                98.37641195,
                27.51093175
              ],
              [
                98.42242572,
                27.54972843
              ],
              [
                98.43657146,
                27.62332818
              ],
              [
                98.54174179,
                27.64030518
              ],
              [
                98.65626976,
                27.5846867
              ],
              [
                98.73449601,
                27.35099972
              ],
              [
                98.76917008,
                26.57422392
              ],
              [
                98.71838943,
                26.22272442
              ],
              [
                98.60036089,
                25.81603554
              ],
              [
                97.89232214,
                25.237982
              ],
              [
                97.56277338,
                24.72934897
              ],
              [
                97.55215791,
                24.4853244
              ],
              [
                97.70876325,
                24.10157166
              ],
              [
                97.56991841,
                23.97841554
              ],
              [
                97.54452498,
                23.92268141
              ],
              [
                97.66192541,
                23.86146055
              ],
              [
                98.11008377,
                24.09281337
              ],
              [
                98.78333953,
                24.13313729
              ],
              [
                98.77778719,
                23.7832949
              ],
              [
                98.91195748,
                23.23830273
              ],
              [
                98.95379812,
                23.17661494
              ],
              [
                99.12099381,
                23.10290204
              ],
              [
                99.22511816,
                23.09173716
              ],
              [
                99.52488435,
                22.90243222
              ],
              [
                99.35520532,
                22.66887995
              ],
              [
                99.25399897,
                22.33242557
              ],
              [
                99.43505225,
                22.10686155
              ],
              [
                99.86515841,
                22.05149648
              ],
              [
                99.9654607,
                21.91071376
              ],
              [
                100.12510338,
                21.51194955
              ],
              [
                100.16676093,
                21.48693858
              ],
              [
                100.60473515,
                21.46502611
              ],
              [
                100.7235561,
                21.5131468
              ],
              [
                100.88752455,
                21.68653481
              ],
              [
                101.1159061,
                21.76899368
              ],
              [
                101.16782105,
                21.60825586
              ],
              [
                101.14318681,
                21.56405931
              ],
              [
                101.15808728,
                21.52333164
              ],
              [
                100.87036937,
                21.32240852
              ],
              [
                100.16810586,
                20.61044812
              ],
              [
                100.08531617,
                20.35273184
              ],
              [
                99.95332678,
                20.46361356
              ],
              [
                99.58765114,
                20.34262406
              ],
              [
                99.25414132,
                20.11404827
              ],
              [
                99.03304414,
                19.88278808
              ],
              [
                98.59550886,
                19.71414152
              ],
              [
                98.39306384,
                19.69046293
              ],
              [
                98.03420699,
                19.74045979
              ],
              [
                97.90531758,
                19.58068137
              ],
              [
                97.8026505,
                19.37656944
              ],
              [
                97.75665636,
                18.76535162
              ],
              [
                97.54094063,
                18.50999738
              ],
              [
                97.54131275,
                18.30035328
              ],
              [
                97.69262478,
                17.83273675
              ],
              [
                97.83310898,
                17.64257469
              ],
              [
                98.37782512,
                17.0589664
              ],
              [
                98.79860328,
                16.10260648
              ],
              [
                98.58651891,
                15.81973339
              ],
              [
                98.54804902,
                15.34682018
              ],
              [
                98.29567906,
                15.30871519
              ],
              [
                98.20268473,
                15.20800914
              ],
              [
                98.19754358,
                15.07418804
              ],
              [
                98.24139456,
                14.87428804
              ],
              [
                98.36236279,
                14.67998282
              ],
              [
                98.65952373,
                14.29092245
              ],
              [
                98.96984756,
                14.046391
              ],
              [
                99.10665098,
                13.86522898
              ],
              [
                99.20077322,
                13.48053926
              ],
              [
                99.20804207,
                13.22631602
              ],
              [
                99.13237151,
                13.16387849
              ],
              [
                99.11280154,
                13.08653051
              ],
              [
                99.2328307,
                12.76204175
              ],
              [
                99.4199569,
                12.51098697
              ],
              [
                99.62471993,
                11.83776553
              ],
              [
                99.52614563,
                11.62335394
              ],
              [
                99.17975958,
                11.05917875
              ],
              [
                98.91554796,
                10.80557513
              ],
              [
                98.80072181,
                10.59975407
              ],
              [
                98.7536723,
                10.38933424
              ],
              [
                98.62344833,
                10.12593532
              ],
              [
                98.51629575,
                10.27148532
              ],
              [
                98.45479987,
                10.6224357
              ],
              [
                98.51049805,
                10.72888184
              ],
              [
                98.70928955,
                10.92352295
              ],
              [
                98.72238556,
                11.34122805
              ],
              [
                98.85791016,
                11.70410156
              ],
              [
                98.81663047,
                11.84277347
              ],
              [
                98.76094624,
                11.88562918
              ],
              [
                98.74971445,
                11.96503107
              ],
              [
                98.70393598,
                12.36037
              ],
              [
                98.69294999,
                12.72755883
              ],
              [
                98.71341824,
                12.79781886
              ],
              [
                98.563367,
                13.21292476
              ],
              [
                98.51918124,
                13.23882629
              ],
              [
                98.24550944,
                13.80781779
              ],
              [
                98.24033246,
                13.91544037
              ],
              [
                98.23121358,
                13.96089662
              ],
              [
                98.21877874,
                13.98162135
              ],
              [
                98.20399509,
                13.97015367
              ],
              [
                98.18049036,
                13.82017808
              ],
              [
                98.16741222,
                13.55865286
              ],
              [
                98.13233142,
                13.55032317
              ],
              [
                97.97007368,
                14.39121188
              ],
              [
                97.96450633,
                14.72036075
              ],
              [
                97.91157268,
                14.86433716
              ],
              [
                97.89078571,
                14.79592289
              ],
              [
                97.89489742,
                14.75492002
              ],
              [
                97.79775309,
                14.92842356
              ],
              [
                97.63380834,
                16.20095853
              ],
              [
                97.63685584,
                16.29949412
              ],
              [
                97.76298362,
                16.52495309
              ],
              [
                97.79568476,
                16.51057062
              ],
              [
                97.81181467,
                16.51166408
              ],
              [
                97.84140592,
                16.54310394
              ],
              [
                97.61640436,
                16.65157608
              ],
              [
                97.60919116,
                16.61915407
              ],
              [
                97.60417048,
                16.57265216
              ],
              [
                97.38738132,
                16.51521599
              ],
              [
                97.23405201,
                16.68455719
              ],
              [
                97.12664554,
                17.06324858
              ],
              [
                96.945037,
                17.27028118
              ],
              [
                96.8946454,
                17.29459801
              ],
              [
                96.87552798,
                17.17497956
              ],
              [
                96.89095288,
                16.96362052
              ],
              [
                96.84795481,
                16.82829009
              ],
              [
                96.68608067,
                16.60665554
              ],
              [
                96.59673732,
                16.52913169
              ],
              [
                96.45869051,
                16.47853007
              ],
              [
                96.40027712,
                16.48202788
              ],
              [
                96.23273862,
                16.60872924
              ],
              [
                95.99890169,
                16.40737206
              ],
              [
                95.85979622,
                16.44174197
              ],
              [
                95.81457482,
                16.16699921
              ],
              [
                95.64391353,
                15.92687035
              ],
              [
                95.44998567,
                15.73540712
              ],
              [
                95.30253226,
                15.7116481
              ],
              [
                95.26987492,
                15.79948596
              ],
              [
                95.29632433,
                15.87487904
              ],
              [
                95.33172472,
                15.9202892
              ],
              [
                95.36108263,
                16.00927845
              ],
              [
                95.38592394,
                16.24249378
              ],
              [
                95.30972368,
                16.18017675
              ],
              [
                95.23052843,
                15.91851918
              ],
              [
                95.18591173,
                16.03051869
              ],
              [
                95.21458157,
                16.11593253
              ],
              [
                95.1409701,
                16.17049256
              ],
              [
                95.05835988,
                16.06185891
              ],
              [
                94.97857433,
                15.84479657
              ],
              [
                94.88369817,
                16.00248505
              ],
              [
                94.90490861,
                16.0922314
              ],
              [
                94.84818226,
                16.14553132
              ],
              [
                94.75909524,
                16.14476989
              ],
              [
                94.70449205,
                16.21373365
              ],
              [
                94.73424701,
                16.36394931
              ],
              [
                94.67894834,
                16.43759839
              ],
              [
                94.51457517,
                16.29226091
              ],
              [
                94.51771606,
                16.20736174
              ],
              [
                94.44193395,
                16.09886494
              ],
              [
                94.31053217,
                15.98046729
              ],
              [
                94.23948848,
                15.96121092
              ],
              [
                94.19628797,
                16.05090434
              ],
              [
                94.24674304,
                16.38972363
              ],
              [
                94.35438985,
                16.6904875
              ],
              [
                94.59365737,
                17.57442497
              ],
              [
                94.45166222,
                17.99671642
              ],
              [
                94.37209304,
                18.37095804
              ],
              [
                94.18440116,
                18.78584086
              ],
              [
                94.13689228,
                18.84983924
              ]
            ]
          ],
          [
            [
              [
                98.44868401,
                12.44523306
              ],
              [
                98.33762523,
                12.3115712
              ],
              [
                98.30576102,
                12.33140726
              ],
              [
                98.29549912,
                12.64527129
              ],
              [
                98.3062133,
                12.68615178
              ],
              [
                98.35718518,
                12.66952759
              ],
              [
                98.47905312,
                12.57398675
              ],
              [
                98.44868401,
                12.44523306
              ]
            ]
          ],
          [
            [
              [
                93.98171867,
                18.97565047
              ],
              [
                93.94279069,
                18.87580828
              ],
              [
                93.75091095,
                18.97212887
              ],
              [
                93.65963483,
                19.05398233
              ],
              [
                93.46965866,
                19.36588207
              ],
              [
                93.49716523,
                19.42384574
              ],
              [
                93.55896785,
                19.4239633
              ],
              [
                93.66267528,
                19.29345166
              ],
              [
                93.89930556,
                19.19857729
              ],
              [
                93.95132755,
                19.13355539
              ],
              [
                93.98171867,
                18.97565047
              ]
            ]
          ]
        ]
      }
    }
  ]
}
