{
  "type": "FeatureCollection",
  "features": [
    {
      "type": "Feature",
      "properties": {
        "name": "BFA Territory 1",
        "layer": "protected_governed",
        "source": "Supplemental GeoJSON prepared outside the PDF for storytelling"
      },
      "geometry": {
        "type": "Polygon",
        "coordinates": [
          [
            [
              -2.8,
              11.4
            ],
            [
              -1.2,
              11.4
            ],
            [
              -1.2,
              12.8
            ],
            [
              -2.8,
              12.8
            ],
            [
              -2.8,
              11.4
            ]
          ]
        ]
      }
    }
  ]
}