{
  "type": "FeatureCollection",
  "features": [
    {
      "type": "Feature",
      "properties": {
        "iso3": "IND",
        "name": "India",
        "layer": "boundary",
        "geometry_quality": "authoritative",
        "geometry_source": "data/source/geo/countries_manifest.json + data/source/geo/countries_topojson/*.topo.json"
      },
      "geometry": {
        "type": "MultiPolygon",
        "coordinates": [
          [
            [
              [
                77.27944,
                32.83999
              ],
              [
                77.44609,
                32.82471
              ],
              [
                77.59943,
                32.88249
              ],
              [
                77.89665,
                32.76999
              ],
              [
                78.33134709,
                32.57714983
              ],
              [
                78.28137,
                32.47193
              ],
              [
                78.31749,
                32.43693
              ],
              [
                78.402077,
                32.526978
              ],
              [
                78.491309,
                32.273919
              ],
              [
                78.49377505,
                32.27186465
              ],
              [
                78.50742747,
                32.20400332
              ],
              [
                78.64448804,
                32.06522145
              ],
              [
                78.69070557,
                32.02016358
              ],
              [
                78.75905843,
                31.95665706
              ],
              [
                78.763404,
                31.947689
              ],
              [
                78.72503362,
                31.82871085
              ],
              [
                78.753017,
                31.384927
              ],
              [
                78.838914,
                31.293977
              ],
              [
                78.88339,
                31.286193
              ],
              [
                78.88645624,
                31.28193655
              ],
              [
                78.92708626,
                31.27747565
              ],
              [
                79.01730801,
                31.25634868
              ],
              [
                79.05031789,
                31.21094342
              ],
              [
                79.17771583,
                31.15344958
              ],
              [
                79.29213333,
                31.10832843
              ],
              [
                79.4130615,
                31.07299273
              ],
              [
                79.551069,
                30.962229
              ],
              [
                79.74456176,
                30.99173744
              ],
              [
                79.85825079,
                30.97470389
              ],
              [
                79.95263,
                30.87439
              ],
              [
                79.96156655,
                30.87082957
              ],
              [
                80.1799705,
                30.69712911
              ],
              [
                80.19608182,
                30.67192443
              ],
              [
                80.19293852,
                30.66671005
              ],
              [
                80.21118,
                30.597037
              ],
              [
                80.5796,
                30.466673
              ],
              [
                80.97673517,
                30.26994721
              ],
              [
                81.04225734,
                30.2119017
              ],
              [
                80.94381463,
                30.21754531
              ],
              [
                80.43057674,
                29.80088739
              ],
              [
                80.0584699,
                28.91658333
              ],
              [
                80.06479616,
                28.83760226
              ],
              [
                80.40251241,
                28.63442974
              ],
              [
                80.68666607,
                28.6039441
              ],
              [
                81.02802268,
                28.42397068
              ],
              [
                81.50584029,
                28.06852581
              ],
              [
                81.8131038,
                27.90448026
              ],
              [
                82.33651145,
                27.75463242
              ],
              [
                82.69478486,
                27.71816275
              ],
              [
                82.75211705,
                27.59401744
              ],
              [
                82.73597855,
                27.50230281
              ],
              [
                83.79533235,
                27.38619323
              ],
              [
                84.05827073,
                27.45189203
              ],
              [
                84.27778045,
                27.41627124
              ],
              [
                84.62000823,
                27.33875859
              ],
              [
                84.68901201,
                27.22064725
              ],
              [
                84.68331074,
                27.14415317
              ],
              [
                85.19717902,
                26.77055962
              ],
              [
                85.4455134,
                26.78436793
              ],
              [
                85.72789246,
                26.72465198
              ],
              [
                85.95463491,
                26.6319747
              ],
              [
                86.2756737,
                26.61735836
              ],
              [
                86.56347846,
                26.50353
              ],
              [
                86.8468881,
                26.44251671
              ],
              [
                87.54083977,
                26.42007615
              ],
              [
                88.02848331,
                26.36729844
              ],
              [
                88.09199488,
                26.4327125
              ],
              [
                88.18696015,
                26.74961335
              ],
              [
                88.11962464,
                26.98710896
              ],
              [
                88.03626022,
                27.0386854
              ],
              [
                88.00034975,
                27.10383775
              ],
              [
                88.05707681,
                27.46635447
              ],
              [
                88.19362511,
                27.79651253
              ],
              [
                88.19329582,
                27.85479211
              ],
              [
                88.135731,
                27.881618
              ],
              [
                88.205515,
                27.952999
              ],
              [
                88.612479,
                28.110729
              ],
              [
                88.769067,
                28.064592
              ],
              [
                88.824077,
                28.020864
              ],
              [
                88.884749,
                27.853796
              ],
              [
                88.773857,
                27.542923
              ],
              [
                88.779879,
                27.473105
              ],
              [
                88.809914,
                27.404633
              ],
              [
                88.92136826,
                27.32728712
              ],
              [
                88.803079,
                27.246103
              ],
              [
                88.774178,
                27.18296
              ],
              [
                88.773981,
                27.135738
              ],
              [
                88.906988,
                26.978909
              ],
              [
                89.157572,
                26.815482
              ],
              [
                89.626242,
                26.741882
              ],
              [
                90.59537238,
                26.80177491
              ],
              [
                90.73381079,
                26.77152876
              ],
              [
                91.73210598,
                26.81783859
              ],
              [
                92.018772,
                26.853315
              ],
              [
                92.115702,
                26.893745
              ],
              [
                92.35690343,
                26.92770089
              ],
              [
                93.21146971,
                26.91313428
              ],
              [
                93.48088719,
                26.94226722
              ],
              [
                93.69427977,
                27.00078211
              ],
              [
                93.79711657,
                27.06651798
              ],
              [
                94.32519916,
                27.55564089
              ],
              [
                95.04117898,
                27.80405662
              ],
              [
                95.21821088,
                27.89257257
              ],
              [
                95.24462289,
                27.91541539
              ],
              [
                95.24121248,
                27.97553646
              ],
              [
                95.42082917,
                28.1561162
              ],
              [
                95.6027975,
                28.29470259
              ],
              [
                95.74692711,
                28.32706215
              ],
              [
                96.57996387,
                28.05466513
              ],
              [
                96.96661438,
                27.86500288
              ],
              [
                97.0633963,
                27.74999306
              ],
              [
                96.92855082,
                27.64863226
              ],
              [
                96.89539559,
                27.57543571
              ],
              [
                96.93110123,
                27.43031781
              ],
              [
                97.01296915,
                27.31350937
              ],
              [
                96.8821335,
                27.25969588
              ],
              [
                96.80154078,
                27.33620796
              ],
              [
                96.71049142,
                27.37242367
              ],
              [
                96.22514983,
                27.27729366
              ],
              [
                96.02545332,
                27.18267373
              ],
              [
                95.87676486,
                27.01970301
              ],
              [
                95.48068736,
                26.74502467
              ],
              [
                95.22182151,
                26.66570715
              ],
              [
                95.1514304,
                26.61699447
              ],
              [
                95.08511994,
                26.48768906
              ],
              [
                95.07440825,
                26.3402758
              ],
              [
                95.11644571,
                26.16167478
              ],
              [
                95.0358771,
                25.74010308
              ],
              [
                94.86547938,
                25.56475452
              ],
              [
                94.67192947,
                25.44477866
              ],
              [
                94.58790457,
                25.2687862
              ],
              [
                94.59083081,
                25.19395805
              ],
              [
                94.73129035,
                25.1350152
              ],
              [
                94.74132317,
                25.09446587
              ],
              [
                94.7379789,
                25.02256396
              ],
              [
                94.63252173,
                24.80067744
              ],
              [
                94.0894992,
                23.88658401
              ],
              [
                93.42405116,
                24.05826984
              ],
              [
                93.3566589,
                23.9439935
              ],
              [
                93.42818926,
                23.66604449
              ],
              [
                93.3645473,
                23.11999654
              ],
              [
                93.2965777,
                23.01070209
              ],
              [
                93.21664341,
                23.03183121
              ],
              [
                93.12669611,
                22.99644629
              ],
              [
                93.09606312,
                22.79796825
              ],
              [
                93.11108262,
                22.55417714
              ],
              [
                93.18439815,
                22.39880592
              ],
              [
                93.19772053,
                22.27576481
              ],
              [
                92.99508455,
                22.03112514
              ],
              [
                92.91307245,
                21.97035911
              ],
              [
                92.67356033,
                22.01049436
              ],
              [
                92.60675611,
                21.97120086
              ],
              [
                92.50601788,
                22.73328583
              ],
              [
                92.354444,
                23.23805601
              ],
              [
                92.28361,
                23.669165
              ],
              [
                92.245833,
                23.708611
              ],
              [
                91.993055,
                23.688057
              ],
              [
                91.77979517,
                23.2289809
              ],
              [
                91.818333,
                23.103611
              ],
              [
                91.801111,
                23.07
              ],
              [
                91.72500096,
                22.99472098
              ],
              [
                91.602222,
                22.95361
              ],
              [
                91.404168,
                23.097499
              ],
              [
                91.166667,
                23.616945
              ],
              [
                91.156398,
                23.706705
              ],
              [
                91.285923,
                23.982042
              ],
              [
                91.389824,
                24.060189
              ],
              [
                91.680748,
                24.177225
              ],
              [
                91.848423,
                24.204734
              ],
              [
                92.12169601,
                24.38686367
              ],
              [
                92.16737231,
                24.43513005
              ],
              [
                92.27922308,
                24.71175882
              ],
              [
                92.4975188,
                24.87595792
              ],
              [
                92.48740861,
                24.94217066
              ],
              [
                92.35694585,
                25.0502598
              ],
              [
                92.05968134,
                25.18661401
              ],
              [
                91.80712024,
                25.1701482
              ],
              [
                91.25964263,
                25.20363511
              ],
              [
                90.44925199,
                25.14472207
              ],
              [
                89.890758,
                25.293279
              ],
              [
                89.838498,
                25.450324
              ],
              [
                89.870056,
                25.662998
              ],
              [
                89.848082,
                25.891952
              ],
              [
                89.765877,
                26.130583
              ],
              [
                89.678695,
                26.210216
              ],
              [
                89.632068,
                26.207666
              ],
              [
                89.610851,
                26.173927
              ],
              [
                89.608731,
                26.121055
              ],
              [
                89.648917,
                26.061654
              ],
              [
                89.58002448,
                26.00325726
              ],
              [
                89.537304,
                25.98525
              ],
              [
                89.338694,
                26.022877
              ],
              [
                89.189483,
                26.127252
              ],
              [
                89.13933,
                26.19471401
              ],
              [
                89.070813,
                26.398466
              ],
              [
                88.957255,
                26.454854
              ],
              [
                88.916507,
                26.365546
              ],
              [
                89.044666,
                26.28478732
              ],
              [
                88.861419,
                26.252042
              ],
              [
                88.421732,
                26.574734
              ],
              [
                88.363131,
                26.472913
              ],
              [
                88.348074,
                26.269167
              ],
              [
                88.176815,
                26.141846
              ],
              [
                88.102386,
                25.934568
              ],
              [
                88.107253,
                25.822188
              ],
              [
                88.45346259,
                25.62721496
              ],
              [
                88.75831,
                25.510276
              ],
              [
                88.999332,
                25.269469
              ],
              [
                88.940943,
                25.174345
              ],
              [
                88.81219818,
                25.17447981
              ],
              [
                88.446863,
                25.085665
              ],
              [
                88.145745,
                24.936014
              ],
              [
                88.016507,
                24.677798
              ],
              [
                88.135278,
                24.516391
              ],
              [
                88.303494,
                24.406596
              ],
              [
                88.68081392,
                24.31625794
              ],
              [
                88.73750106,
                24.16604502
              ],
              [
                88.757854,
                23.98374902
              ],
              [
                88.72301596,
                23.91511296
              ],
              [
                88.58739308,
                23.84558407
              ],
              [
                88.56451501,
                23.65742208
              ],
              [
                88.75398894,
                23.36114292
              ],
              [
                88.89649604,
                22.91068302
              ],
              [
                88.98793104,
                22.35223403
              ],
              [
                89.07008094,
                22.19780586
              ],
              [
                88.9683036,
                22.21563989
              ],
              [
                88.41923269,
                21.90686973
              ],
              [
                88.33924,
                21.74843
              ],
              [
                88.2191992,
                21.7788349
              ],
              [
                88.16381778,
                21.88041554
              ],
              [
                88.22597307,
                22.08415554
              ],
              [
                88.20670171,
                22.11335791
              ],
              [
                88.0760866,
                22.01950026
              ],
              [
                87.91713806,
                21.80172994
              ],
              [
                87.7919799,
                21.69467676
              ],
              [
                87.17679731,
                21.53647072
              ],
              [
                86.99511037,
                21.41934388
              ],
              [
                86.85874551,
                21.26007938
              ],
              [
                86.82440957,
                21.13910551
              ],
              [
                86.97031779,
                20.84756494
              ],
              [
                86.9980678,
                20.7110263
              ],
              [
                86.41783282,
                19.99366999
              ],
              [
                86.19653956,
                19.89046879
              ],
              [
                85.68096427,
                19.74484823
              ],
              [
                85.4205583,
                19.6232698
              ],
              [
                84.96572505,
                19.30511981
              ],
              [
                84.81945516,
                19.16747768
              ],
              [
                84.51660159,
                18.76057968
              ],
              [
                84.13799139,
                18.33904658
              ],
              [
                83.41629047,
                17.83460358
              ],
              [
                83.21510148,
                17.59415735
              ],
              [
                82.59208153,
                17.27995492
              ],
              [
                82.32688054,
                17.06747078
              ],
              [
                82.250198,
                16.92443818
              ],
              [
                82.25939734,
                16.88799107
              ],
              [
                82.32139892,
                16.85333139
              ],
              [
                82.34486509,
                16.7802136
              ],
              [
                82.35152734,
                16.71435679
              ],
              [
                82.30995201,
                16.58948709
              ],
              [
                81.77613958,
                16.33512139
              ],
              [
                81.51571003,
                16.35725415
              ],
              [
                81.30884685,
                16.30693459
              ],
              [
                81.22926001,
                16.22438913
              ],
              [
                81.02019435,
                15.78368442
              ],
              [
                80.78960334,
                15.77237163
              ],
              [
                80.79911567,
                15.84922823
              ],
              [
                80.64245369,
                15.87652583
              ],
              [
                80.42201286,
                15.79895778
              ],
              [
                80.27949453,
                15.68169498
              ],
              [
                80.08341653,
                15.25784777
              ],
              [
                80.04818519,
                15.07808432
              ],
              [
                80.10724584,
                14.75450739
              ],
              [
                80.16030191,
                14.00968981
              ],
              [
                80.31464082,
                13.46790571
              ],
              [
                80.31014789,
                13.16422416
              ],
              [
                80.2521068,
                12.7908485
              ],
              [
                80.1577565,
                12.4778898
              ],
              [
                79.88021209,
                12.05504491
              ],
              [
                79.7609744,
                11.6237424
              ],
              [
                79.8560907,
                11.0352496
              ],
              [
                79.87808405,
                10.3407563
              ],
              [
                79.5291029,
                10.3160775
              ],
              [
                79.2299376,
                10.13183
              ],
              [
                78.9807855,
                9.688953
              ],
              [
                79.0420783,
                9.3131968
              ],
              [
                78.5166892,
                9.1352716
              ],
              [
                78.15815127,
                8.77038262
              ],
              [
                78.1265093,
                8.5038449
              ],
              [
                78.05618167,
                8.38435991
              ],
              [
                77.772968,
                8.1950166
              ],
              [
                77.5405141,
                8.0786201
              ],
              [
                77.32574396,
                8.123822
              ],
              [
                77.0164083,
                8.3541266
              ],
              [
                76.53854407,
                8.93260368
              ],
              [
                76.35305016,
                9.37635955
              ],
              [
                76.23616168,
                9.96303598
              ],
              [
                76.130499,
                10.2859437
              ],
              [
                75.73355443,
                11.35229651
              ],
              [
                75.53434092,
                11.69597204
              ],
              [
                75.22041873,
                12.01308098
              ],
              [
                74.958449,
                12.538862
              ],
              [
                74.8044629,
                12.9334663
              ],
              [
                74.56490085,
                13.94851332
              ],
              [
                74.34469288,
                14.52067026
              ],
              [
                74.22693346,
                14.74315481
              ],
              [
                73.94397844,
                15.15985096
              ],
              [
                73.8851572,
                15.3513479
              ],
              [
                73.45595402,
                16.12402059
              ],
              [
                73.34467722,
                16.46246853
              ],
              [
                73.22229361,
                17.30225976
              ],
              [
                72.89614446,
                18.47237953
              ],
              [
                72.85765523,
                18.69348628
              ],
              [
                72.86356243,
                18.77807338
              ],
              [
                72.89635396,
                18.80080284
              ],
              [
                72.8919757,
                18.99607554
              ],
              [
                72.82317413,
                19.01770529
              ],
              [
                72.77732409,
                19.22780869
              ],
              [
                72.78699822,
                19.30768299
              ],
              [
                72.89682622,
                19.29795083
              ],
              [
                72.87368057,
                19.33128807
              ],
              [
                72.85282011,
                19.34181586
              ],
              [
                72.74721595,
                19.45251573
              ],
              [
                72.66532809,
                19.85237111
              ],
              [
                72.79678213,
                20.35058035
              ],
              [
                72.89552541,
                20.57570986
              ],
              [
                72.71384213,
                21.13768563
              ],
              [
                72.69038778,
                21.15754396
              ],
              [
                72.68036399,
                21.1583716
              ],
              [
                72.66243824,
                21.14989124
              ],
              [
                72.65715054,
                21.13003543
              ],
              [
                72.6204425,
                21.1372042
              ],
              [
                72.62754058,
                21.54325593
              ],
              [
                72.73632762,
                21.63471016
              ],
              [
                72.82978719,
                21.66537537
              ],
              [
                72.65647277,
                21.68057744
              ],
              [
                72.55268247,
                21.79969767
              ],
              [
                72.50469034,
                21.96544457
              ],
              [
                72.58048477,
                22.19820229
              ],
              [
                72.64042206,
                22.21664419
              ],
              [
                72.75194417,
                22.18369281
              ],
              [
                72.84705129,
                22.25187611
              ],
              [
                72.82072854,
                22.27038357
              ],
              [
                72.34064114,
                22.2575334
              ],
              [
                72.2251727,
                21.93286176
              ],
              [
                72.30196489,
                21.6182464
              ],
              [
                72.09613413,
                21.22361768
              ],
              [
                71.94717731,
                21.12061122
              ],
              [
                70.99291293,
                20.71607914
              ],
              [
                70.8071047,
                20.7007484
              ],
              [
                70.59816616,
                20.77869783
              ],
              [
                70.28186252,
                20.95637842
              ],
              [
                70.06834527,
                21.13643697
              ],
              [
                69.19031119,
                21.98627129
              ],
              [
                68.97607212,
                22.21973609
              ],
              [
                68.936125,
                22.30819141
              ],
              [
                68.97769166,
                22.40448839
              ],
              [
                69.06722145,
                22.47965417
              ],
              [
                69.08342052,
                22.39132983
              ],
              [
                69.15738789,
                22.31656955
              ],
              [
                69.29533825,
                22.28000844
              ],
              [
                70.06233271,
                22.55003114
              ],
              [
                70.21401105,
                22.62873403
              ],
              [
                70.45928269,
                22.84679928
              ],
              [
                70.47391067,
                22.88190849
              ],
              [
                70.50697831,
                23.1087724
              ],
              [
                70.29747597,
                23.1099106
              ],
              [
                70.22369605,
                23.09395164
              ],
              [
                70.02994461,
                22.90203202
              ],
              [
                69.71491463,
                22.74143154
              ],
              [
                69.17809914,
                22.84902574
              ],
              [
                68.67207521,
                23.14286791
              ],
              [
                68.58575903,
                23.21954221
              ],
              [
                68.47029948,
                23.40107634
              ],
              [
                68.43896221,
                23.55331917
              ],
              [
                68.52770448,
                23.6876082
              ],
              [
                68.65008873,
                23.79193515
              ],
              [
                68.50520067,
                23.97145109
              ],
              [
                68.75287128,
                23.97145
              ],
              [
                68.76819128,
                24.24499
              ],
              [
                69.57118128,
                24.28472
              ],
              [
                69.71400128,
                24.18641
              ],
              [
                70.08054128,
                24.23028
              ],
              [
                70.13919128,
                24.30286
              ],
              [
                70.52098128,
                24.40512
              ],
              [
                70.57429128,
                24.32034
              ],
              [
                70.57119128,
                24.25175
              ],
              [
                70.72403128,
                24.21659
              ],
              [
                70.89764128,
                24.2562
              ],
              [
                70.99897128,
                24.35442
              ],
              [
                71.04466128,
                24.43439
              ],
              [
                71.02913428,
                24.801616
              ],
              [
                70.58567549,
                25.70682772
              ],
              [
                70.38750128,
                25.673461
              ],
              [
                70.26882528,
                25.713226
              ],
              [
                70.09863928,
                25.939883
              ],
              [
                70.08322728,
                26.084853
              ],
              [
                70.17517828,
                26.250785
              ],
              [
                70.17394528,
                26.551669
              ],
              [
                70.05579228,
                26.600742
              ],
              [
                69.78816928,
                26.600373
              ],
              [
                69.50798438,
                26.74861052
              ],
              [
                69.48426428,
                26.80499
              ],
              [
                69.51357928,
                27.010038
              ],
              [
                69.58564828,
                27.181364
              ],
              [
                70.02580028,
                27.563257
              ],
              [
                70.15194484,
                27.8267718
              ],
              [
                70.38150372,
                28.01312485
              ],
              [
                70.55431928,
                28.02631
              ],
              [
                70.65695516,
                27.9400545
              ],
              [
                70.67868827,
                27.8754705
              ],
              [
                71.0009865,
                27.75002671
              ],
              [
                71.64219284,
                27.87749799
              ],
              [
                71.90273209,
                27.98579787
              ],
              [
                72.2371664,
                28.48726032
              ],
              [
                72.29881528,
                28.669773
              ],
              [
                72.40372528,
                28.782934
              ],
              [
                72.96063032,
                29.05948712
              ],
              [
                73.2776183,
                29.56449149
              ],
              [
                73.34352228,
                29.766965
              ],
              [
                73.78519028,
                30.062882
              ],
              [
                74.09028928,
                30.569513
              ],
              [
                74.46249196,
                30.96126056
              ],
              [
                74.57014787,
                31.11475607
              ],
              [
                74.58297237,
                31.38788488
              ],
              [
                74.50237228,
                31.700902
              ],
              [
                74.59555128,
                31.87162975
              ],
              [
                74.83229609,
                32.00321206
              ],
              [
                75.28127228,
                32.12265
              ],
              [
                75.3829349,
                32.26696439
              ],
              [
                75.33294673,
                32.32612722
              ],
              [
                75.53137,
                32.32138
              ],
              [
                75.8261,
                32.49387
              ],
              [
                75.91254,
                32.60668
              ],
              [
                75.9472,
                32.72582
              ],
              [
                75.90387,
                32.80083
              ],
              [
                76.03747979,
                32.90804511
              ],
              [
                76.48415,
                33.17083
              ],
              [
                76.75555,
                33.15804
              ],
              [
                76.91332,
                33.06388
              ],
              [
                77.00639031,
                32.96582515
              ],
              [
                77.27944,
                32.83999
              ]
            ]
          ],
          [
            [
              [
                93.87961219,
                6.80256325
              ],
              [
                93.82528531,
                6.75647064
              ],
              [
                93.75122222,
                6.95720706
              ],
              [
                93.67480386,
                7.02217415
              ],
              [
                93.66921155,
                7.06520439
              ],
              [
                93.67520911,
                7.15958965
              ],
              [
                93.70263297,
                7.18777098
              ],
              [
                93.8229738,
                7.23714612
              ],
              [
                93.8474711,
                7.24094659
              ],
              [
                93.84640052,
                7.21717407
              ],
              [
                93.88340278,
                7.18509143
              ],
              [
                93.92865815,
                6.95608518
              ],
              [
                93.87961219,
                6.80256325
              ]
            ]
          ],
          [
            [
              [
                92.55695144,
                10.5614223
              ],
              [
                92.50138105,
                10.5109808
              ],
              [
                92.39174729,
                10.55796452
              ],
              [
                92.37748844,
                10.75521568
              ],
              [
                92.52231509,
                10.896794
              ],
              [
                92.56013908,
                10.86102108
              ],
              [
                92.59409258,
                10.70954147
              ],
              [
                92.55695144,
                10.5614223
              ]
            ]
          ],
          [
            [
              [
                92.73346,
                11.90461
              ],
              [
                92.7574,
                11.65623
              ],
              [
                92.71385,
                11.49157
              ],
              [
                92.67323,
                11.50568
              ],
              [
                92.60846,
                11.59687
              ],
              [
                92.51659,
                11.85475
              ],
              [
                92.5607,
                11.93652
              ],
              [
                92.59376,
                11.89891
              ],
              [
                92.61079,
                11.94338
              ],
              [
                92.66288,
                12.21681
              ],
              [
                92.70915,
                12.19379
              ],
              [
                92.73830825,
                12.07808457
              ],
              [
                92.73346,
                11.90461
              ]
            ]
          ],
          [
            [
              [
                92.85428,
                12.92539
              ],
              [
                92.87096,
                12.89281
              ],
              [
                92.91036,
                12.90446
              ],
              [
                92.94929,
                12.81555
              ],
              [
                92.9614314,
                12.4868658
              ],
              [
                92.90562,
                12.42392
              ],
              [
                92.84043,
                12.42263
              ],
              [
                92.85955,
                12.2432
              ],
              [
                92.75689,
                12.23388
              ],
              [
                92.77752,
                12.2954
              ],
              [
                92.722654,
                12.30145853
              ],
              [
                92.70083,
                12.3382
              ],
              [
                92.6985,
                12.60971
              ],
              [
                92.80317,
                12.89858
              ],
              [
                92.8213,
                13.31331
              ],
              [
                92.91468,
                13.52118
              ],
              [
                93.02793,
                13.57829
              ],
              [
                93.04888,
                13.40405
              ],
              [
                93.02083,
                13.35031
              ],
              [
                92.97700474,
                13.34784847
              ],
              [
                93.01338054,
                13.28495174
              ],
              [
                92.85428,
                12.92539
              ]
            ]
          ]
        ]
      }
    }
  ]
}
