{
  "type": "FeatureCollection",
  "features": [
    {
      "type": "Feature",
      "properties": {
        "name": "ECU Territory 1",
        "layer": "protected_governed",
        "source": "Supplemental GeoJSON prepared outside the PDF for storytelling"
      },
      "geometry": {
        "type": "Polygon",
        "coordinates": [
          [
            [
              -78.9,
              -2.9
            ],
            [
              -77.3,
              -2.9
            ],
            [
              -77.3,
              -1.0
            ],
            [
              -78.9,
              -1.0
            ],
            [
              -78.9,
              -2.9
            ]
          ]
        ]
      }
    }
  ]
}