{
  "type": "FeatureCollection",
  "features": [
    {
      "type": "Feature",
      "properties": {
        "iso3": "COG",
        "name": "Republic of Congo",
        "layer": "boundary",
        "geometry_quality": "authoritative",
        "geometry_source": "data/source/geo/countries_manifest.json + data/source/geo/countries_topojson/*.topo.json"
      },
      "geometry": {
        "type": "Polygon",
        "coordinates": [
          [
            [
              18.62508317,
              3.47164695
            ],
            [
              18.63024157,
              3.18918369
            ],
            [
              18.34457779,
              2.62757881
            ],
            [
              18.20154717,
              2.40667885
            ],
            [
              18.17313299,
              2.35946099
            ],
            [
              18.09906309,
              2.27794952
            ],
            [
              18.09457419,
              2.27188607
            ],
            [
              18.09246771,
              2.2505775
            ],
            [
              18.05912953,
              2.05700267
            ],
            [
              18.06190605,
              1.8905499
            ],
            [
              18.05551745,
              1.86595976
            ],
            [
              18.0557735,
              1.84196101
            ],
            [
              18.07001517,
              1.53076845
            ],
            [
              17.94296802,
              1.2690022
            ],
            [
              17.84203356,
              0.97064408
            ],
            [
              17.87202372,
              0.58401149
            ],
            [
              17.82116991,
              0.23245792
            ],
            [
              17.69921158,
              -0.12737028
            ],
            [
              17.70443346,
              -0.57980959
            ],
            [
              17.664942,
              -0.64901367
            ],
            [
              17.41238875,
              -0.8899399
            ],
            [
              17.00936344,
              -1.12679841
            ],
            [
              16.84780773,
              -1.25452493
            ],
            [
              16.7229705,
              -1.43923377
            ],
            [
              16.59804349,
              -1.69808694
            ],
            [
              16.18828334,
              -2.18632483
            ],
            [
              16.18116179,
              -2.40505791
            ],
            [
              16.21039664,
              -2.52574947
            ],
            [
              16.15508441,
              -3.43354041
            ],
            [
              15.95792059,
              -3.79432396
            ],
            [
              15.73623727,
              -3.98659808
            ],
            [
              15.1467501,
              -4.4145505
            ],
            [
              14.8082529,
              -4.83713707
            ],
            [
              14.68757501,
              -4.9128817
            ],
            [
              14.42353866,
              -4.88881032
            ],
            [
              14.39885077,
              -4.8601934
            ],
            [
              14.41875969,
              -4.51350402
            ],
            [
              14.47628027,
              -4.44241855
            ],
            [
              14.40760299,
              -4.30361664
            ],
            [
              13.72487516,
              -4.49279689
            ],
            [
              13.70470078,
              -4.70874713
            ],
            [
              13.60936902,
              -4.79252735
            ],
            [
              13.41390661,
              -4.87115511
            ],
            [
              13.19772704,
              -4.66010122
            ],
            [
              13.10175845,
              -4.68505245
            ],
            [
              12.98789046,
              -4.56355412
            ],
            [
              12.74343474,
              -4.44204111
            ],
            [
              11.98976946,
              -4.99921432
            ],
            [
              11.85407711,
              -4.82088681
            ],
            [
              11.82198843,
              -4.63521997
            ],
            [
              11.68160975,
              -4.45030253
            ],
            [
              11.34935303,
              -4.11603195
            ],
            [
              11.15316525,
              -3.96012753
            ],
            [
              11.250241,
              -3.748239
            ],
            [
              11.483899,
              -3.493898
            ],
            [
              11.651497,
              -3.64116
            ],
            [
              11.669711,
              -3.739217
            ],
            [
              11.811294,
              -3.707595
            ],
            [
              11.899496,
              -3.643877
            ],
            [
              11.952419,
              -3.328327
            ],
            [
              11.715993,
              -3.110612
            ],
            [
              11.586826,
              -2.871711
            ],
            [
              11.522416,
              -2.378259
            ],
            [
              11.634035,
              -2.409107
            ],
            [
              12.513935,
              -2.421706
            ],
            [
              12.491244,
              -2.150998
            ],
            [
              12.448768,
              -1.997828
            ],
            [
              12.461058,
              -1.879698
            ],
            [
              12.607788,
              -1.814012
            ],
            [
              12.786577,
              -1.894386
            ],
            [
              13.058135,
              -2.334407
            ],
            [
              13.479197,
              -2.42816
            ],
            [
              13.628285,
              -2.320056
            ],
            [
              13.726847,
              -2.19374
            ],
            [
              13.871441,
              -2.408559
            ],
            [
              13.867731,
              -2.470185
            ],
            [
              13.901872,
              -2.49028
            ],
            [
              14.07697238,
              -2.49733516
            ],
            [
              14.227217,
              -2.36271
            ],
            [
              14.34417,
              -1.939006
            ],
            [
              14.427937,
              -1.78787
            ],
            [
              14.493936,
              -1.455195
            ],
            [
              14.474997,
              -1.136173
            ],
            [
              14.518606,
              -0.674241
            ],
            [
              14.418215,
              -0.477361
            ],
            [
              13.892662,
              -0.235301
            ],
            [
              13.90412,
              0.248234
            ],
            [
              13.946332,
              0.346314
            ],
            [
              14.142034,
              0.557124
            ],
            [
              14.275185,
              0.542325
            ],
            [
              14.336432,
              0.612388
            ],
            [
              14.483178,
              0.832073
            ],
            [
              14.47359,
              0.941805
            ],
            [
              14.283738,
              1.33423
            ],
            [
              14.177069,
              1.396559
            ],
            [
              13.810958,
              1.429342
            ],
            [
              13.786759,
              1.392913
            ],
            [
              13.573369,
              1.289477
            ],
            [
              13.339421,
              1.257539
            ],
            [
              13.218151,
              1.284063
            ],
            [
              13.132497,
              1.580803
            ],
            [
              13.137025,
              1.686924
            ],
            [
              13.175664,
              1.873603
            ],
            [
              13.256896,
              2.023303
            ],
            [
              13.297022,
              2.172197
            ],
            [
              14.2666665,
              2.17222209
            ],
            [
              15.110743,
              1.99298
            ],
            [
              15.488495,
              1.982977
            ],
            [
              15.780148,
              1.892448
            ],
            [
              15.921244,
              1.780138
            ],
            [
              16.096634,
              1.888601
            ],
            [
              16.155099,
              2.18332
            ],
            [
              16.19179703,
              2.2203349
            ],
            [
              16.46067,
              2.73035
            ],
            [
              16.59332,
              3.4667
            ],
            [
              16.66285,
              3.53768
            ],
            [
              17.38422588,
              3.64562203
            ],
            [
              17.84018667,
              3.59924333
            ],
            [
              18.28716,
              3.59194
            ],
            [
              18.46129,
              3.62615
            ],
            [
              18.62508317,
              3.47164695
            ]
          ]
        ]
      }
    }
  ]
}
