{
  "type": "FeatureCollection",
  "features": [
    {
      "type": "Feature",
      "properties": {
        "name": "IDN Territory 1",
        "layer": "protected_governed",
        "source": "Supplemental GeoJSON prepared outside the PDF for storytelling"
      },
      "geometry": {
        "type": "Polygon",
        "coordinates": [
          [
            [
              138.3,
              -4.7
            ],
            [
              140.6,
              -4.7
            ],
            [
              140.6,
              -2.3
            ],
            [
              138.3,
              -2.3
            ],
            [
              138.3,
              -4.7
            ]
          ]
        ]
      }
    },
    {
      "type": "Feature",
      "properties": {
        "name": "IDN Territory 2",
        "layer": "protected_governed",
        "source": "Supplemental GeoJSON prepared outside the PDF for storytelling"
      },
      "geometry": {
        "type": "Polygon",
        "coordinates": [
          [
            [
              135.1,
              -3.8
            ],
            [
              137.2,
              -3.8
            ],
            [
              137.2,
              -1.9
            ],
            [
              135.1,
              -1.9
            ],
            [
              135.1,
              -3.8
            ]
          ]
        ]
      }
    }
  ]
}