{
  "type": "FeatureCollection",
  "features": [
    {
      "type": "Feature",
      "properties": {
        "name": "SUR Territory 1",
        "layer": "protected_governed",
        "source": "Supplemental GeoJSON prepared outside the PDF for storytelling"
      },
      "geometry": {
        "type": "Polygon",
        "coordinates": [
          [
            [
              -56.8,
              4.1
            ],
            [
              -55.2,
              4.1
            ],
            [
              -55.2,
              5.3
            ],
            [
              -56.8,
              5.3
            ],
            [
              -56.8,
              4.1
            ]
          ]
        ]
      }
    }
  ]
}