{
  "type": "FeatureCollection",
  "features": [
    {
      "type": "Feature",
      "properties": {
        "iso3": "ECU",
        "name": "Ecuador",
        "layer": "boundary",
        "geometry_quality": "authoritative",
        "geometry_source": "data/source/geo/countries_manifest.json + data/source/geo/countries_topojson/*.topo.json"
      },
      "geometry": {
        "type": "MultiPolygon",
        "coordinates": [
          [
            [
              [
                -77.0848872,
                0.306524
              ],
              [
                -76.42291702,
                0.23430248
              ],
              [
                -76.41183245,
                0.35097261
              ],
              [
                -76.38320121,
                0.38903281
              ],
              [
                -76.26026922,
                0.41584737
              ],
              [
                -76.05154419,
                0.33041189
              ],
              [
                -75.76645721,
                0.04022104
              ],
              [
                -75.25866834,
                -0.1135755
              ],
              [
                -75.58585597,
                -0.18802116
              ],
              [
                -75.31130774,
                -0.47720435
              ],
              [
                -75.24296395,
                -0.64174908
              ],
              [
                -75.23020363,
                -0.85623818
              ],
              [
                -75.40779633,
                -1.00710216
              ],
              [
                -75.57755657,
                -1.54771216
              ],
              [
                -76.04325305,
                -2.12461958
              ],
              [
                -76.63357143,
                -2.59018879
              ],
              [
                -77.65732731,
                -2.93587268
              ],
              [
                -78.3530246,
                -3.41173624
              ],
              [
                -78.62645018,
                -4.41661966
              ],
              [
                -78.71854907,
                -4.62814033
              ],
              [
                -78.99548856,
                -4.97334802
              ],
              [
                -79.28332066,
                -4.94738994
              ],
              [
                -79.40791016,
                -4.79647443
              ],
              [
                -79.48509512,
                -4.62820266
              ],
              [
                -79.70525603,
                -4.47050194
              ],
              [
                -79.93477523,
                -4.39570867
              ],
              [
                -80.21868269,
                -4.3605622
              ],
              [
                -80.33650685,
                -4.46686191
              ],
              [
                -80.39717073,
                -4.47918819
              ],
              [
                -80.44097666,
                -4.45426896
              ],
              [
                -80.44494318,
                -4.20310701
              ],
              [
                -80.32859347,
                -4.00475007
              ],
              [
                -80.19262575,
                -3.68015252
              ],
              [
                -80.22909833,
                -3.4283877
              ],
              [
                -80.17957191,
                -3.34198498
              ],
              [
                -80.11960613,
                -3.33341156
              ],
              [
                -79.93055771,
                -3.17068986
              ],
              [
                -79.88011348,
                -3.0744303
              ],
              [
                -79.79430743,
                -2.73791538
              ],
              [
                -79.775951,
                -2.53487515
              ],
              [
                -79.83325887,
                -2.39541229
              ],
              [
                -80.02668186,
                -2.35651144
              ],
              [
                -80.25801218,
                -2.74309137
              ],
              [
                -80.7478585,
                -2.39105785
              ],
              [
                -80.94250373,
                -2.21856547
              ],
              [
                -80.73393786,
                -1.88683677
              ],
              [
                -80.73933274,
                -1.36682118
              ],
              [
                -80.78522275,
                -1.28328585
              ],
              [
                -80.72615072,
                -0.93969387
              ],
              [
                -80.42883932,
                -0.56769873
              ],
              [
                -80.23381772,
                -0.13791319
              ],
              [
                -80.05967878,
                0.06642963
              ],
              [
                -80.01283562,
                0.52738419
              ],
              [
                -80.08685288,
                0.65009758
              ],
              [
                -80.02986474,
                0.81789945
              ],
              [
                -79.66188946,
                0.99022769
              ],
              [
                -79.17176321,
                1.09292658
              ],
              [
                -78.95073813,
                1.32358144
              ],
              [
                -78.88281699,
                1.44635781
              ],
              [
                -78.78146042,
                1.4007239
              ],
              [
                -78.58862992,
                1.24197538
              ],
              [
                -78.24568105,
                1.02876177
              ],
              [
                -77.81403368,
                0.81938701
              ],
              [
                -77.52074043,
                0.51485564
              ],
              [
                -77.36686329,
                0.39777301
              ],
              [
                -77.0848872,
                0.306524
              ]
            ]
          ],
          [
            [
              [
                -80.11089671,
                -2.99135835
              ],
              [
                -80.19340697,
                -3.0413482
              ],
              [
                -80.25646,
                -3.02753477
              ],
              [
                -80.26199211,
                -2.88059013
              ],
              [
                -80.22001546,
                -2.73821015
              ],
              [
                -80.03557706,
                -2.67550529
              ],
              [
                -79.9028885,
                -2.73874754
              ],
              [
                -79.91007881,
                -2.77492695
              ],
              [
                -80.00444136,
                -2.8207729
              ],
              [
                -80.11089671,
                -2.99135835
              ]
            ]
          ],
          [
            [
              [
                -91.34005185,
                0.16356791
              ],
              [
                -91.20750148,
                -0.01874476
              ],
              [
                -91.04712518,
                -0.34445748
              ],
              [
                -90.79509815,
                -0.74251668
              ],
              [
                -90.84694425,
                -0.89939197
              ],
              [
                -90.90470504,
                -0.95305372
              ],
              [
                -91.21568883,
                -1.04449184
              ],
              [
                -91.43497757,
                -1.00332151
              ],
              [
                -91.51232905,
                -0.90689255
              ],
              [
                -91.49724356,
                -0.85817334
              ],
              [
                -91.33515793,
                -0.71580008
              ],
              [
                -91.21096987,
                -0.67186825
              ],
              [
                -91.40493372,
                -0.10333129
              ],
              [
                -91.47782152,
                -0.01701674
              ],
              [
                -91.55157505,
                -0.04862325
              ],
              [
                -91.59432078,
                -0.0112207
              ],
              [
                -91.34005185,
                0.16356791
              ]
            ]
          ],
          [
            [
              [
                -89.45084703,
                -0.93724992
              ],
              [
                -89.5357051,
                -0.95463206
              ],
              [
                -89.62779943,
                -0.91858065
              ],
              [
                -89.57117235,
                -0.86300585
              ],
              [
                -89.46146721,
                -0.7625527
              ],
              [
                -89.42316271,
                -0.72879228
              ],
              [
                -89.35033009,
                -0.68656956
              ],
              [
                -89.2654011,
                -0.69437981
              ],
              [
                -89.24381868,
                -0.72474666
              ],
              [
                -89.45084703,
                -0.93724992
              ]
            ]
          ],
          [
            [
              [
                -90.23387896,
                -0.73273391
              ],
              [
                -90.39818928,
                -0.77268205
              ],
              [
                -90.53346416,
                -0.69641901
              ],
              [
                -90.54604189,
                -0.63061004
              ],
              [
                -90.50309926,
                -0.53133678
              ],
              [
                -90.24781353,
                -0.49469528
              ],
              [
                -90.16895496,
                -0.57521796
              ],
              [
                -90.19418639,
                -0.69088713
              ],
              [
                -90.23387896,
                -0.73273391
              ]
            ]
          ],
          [
            [
              [
                -91.38890617,
                -0.45726596
              ],
              [
                -91.48021197,
                -0.50175587
              ],
              [
                -91.60877591,
                -0.48078486
              ],
              [
                -91.65760167,
                -0.30651506
              ],
              [
                -91.45796859,
                -0.26146581
              ],
              [
                -91.38117422,
                -0.34793433
              ],
              [
                -91.38890617,
                -0.45726596
              ]
            ]
          ],
          [
            [
              [
                -90.55244462,
                -0.32184873
              ],
              [
                -90.58009253,
                -0.36408574
              ],
              [
                -90.74549384,
                -0.35726005
              ],
              [
                -90.83126849,
                -0.31495631
              ],
              [
                -90.86093465,
                -0.24106055
              ],
              [
                -90.78793308,
                -0.14658689
              ],
              [
                -90.58839675,
                -0.23254022
              ],
              [
                -90.55244462,
                -0.32184873
              ]
            ]
          ]
        ]
      }
    }
  ]
}
