{
  "type": "FeatureCollection",
  "features": [
    {
      "type": "Feature",
      "properties": {
        "iso3": "NPL",
        "name": "Nepal",
        "layer": "boundary",
        "geometry_quality": "authoritative",
        "geometry_source": "data/source/geo/countries_manifest.json + data/source/geo/countries_topojson/*.topo.json"
      },
      "geometry": {
        "type": "Polygon",
        "coordinates": [
          [
            [
              88.135731,
              27.881618
            ],
            [
              88.19329582,
              27.85479211
            ],
            [
              88.19362511,
              27.79651253
            ],
            [
              88.05707681,
              27.46635447
            ],
            [
              88.00034975,
              27.10383775
            ],
            [
              88.03626022,
              27.0386854
            ],
            [
              88.11962464,
              26.98710896
            ],
            [
              88.18696015,
              26.74961335
            ],
            [
              88.09199488,
              26.4327125
            ],
            [
              88.02848331,
              26.36729844
            ],
            [
              87.54083977,
              26.42007615
            ],
            [
              86.8468881,
              26.44251671
            ],
            [
              86.56347846,
              26.50353
            ],
            [
              86.2756737,
              26.61735836
            ],
            [
              85.95463491,
              26.6319747
            ],
            [
              85.72789246,
              26.72465198
            ],
            [
              85.4455134,
              26.78436793
            ],
            [
              85.19717902,
              26.77055962
            ],
            [
              84.68331074,
              27.14415317
            ],
            [
              84.68901201,
              27.22064725
            ],
            [
              84.62000823,
              27.33875859
            ],
            [
              84.27778045,
              27.41627124
            ],
            [
              84.05827073,
              27.45189203
            ],
            [
              83.79533235,
              27.38619323
            ],
            [
              82.73597855,
              27.50230281
            ],
            [
              82.75211705,
              27.59401744
            ],
            [
              82.69478486,
              27.71816275
            ],
            [
              82.33651145,
              27.75463242
            ],
            [
              81.8131038,
              27.90448026
            ],
            [
              81.50584029,
              28.06852581
            ],
            [
              81.02802268,
              28.42397068
            ],
            [
              80.68666607,
              28.6039441
            ],
            [
              80.40251241,
              28.63442974
            ],
            [
              80.06479616,
              28.83760226
            ],
            [
              80.0584699,
              28.91658333
            ],
            [
              80.43057674,
              29.80088739
            ],
            [
              80.94381463,
              30.21754531
            ],
            [
              81.04225734,
              30.2119017
            ],
            [
              81.09838664,
              30.04894446
            ],
            [
              81.12315359,
              30.0225324
            ],
            [
              81.23224872,
              30.00810798
            ],
            [
              81.3576202,
              30.18148809
            ],
            [
              81.46091621,
              30.40577543
            ],
            [
              81.5813296,
              30.42386719
            ],
            [
              82.06513149,
              30.35411799
            ],
            [
              82.1600785,
              30.18935764
            ],
            [
              82.72476406,
              29.8017868
            ],
            [
              83.16339127,
              29.6092241
            ],
            [
              83.44066459,
              29.30784406
            ],
            [
              83.73945134,
              29.24498987
            ],
            [
              83.82257676,
              29.30287919
            ],
            [
              83.96054267,
              29.33025132
            ],
            [
              84.08555087,
              29.29467097
            ],
            [
              84.16944243,
              29.24078277
            ],
            [
              84.22748185,
              28.94301456
            ],
            [
              84.74140452,
              28.616962
            ],
            [
              85.12915765,
              28.48645889
            ],
            [
              85.41307997,
              28.32242649
            ],
            [
              85.7349025,
              28.32453437
            ],
            [
              86.00048794,
              27.91146033
            ],
            [
              86.56188929,
              28.1012682
            ],
            [
              86.66752466,
              28.10057899
            ],
            [
              87.01050075,
              27.95439943
            ],
            [
              87.10801581,
              27.85446246
            ],
            [
              87.22833795,
              27.82539581
            ],
            [
              87.5909685,
              27.83221413
            ],
            [
              87.964217,
              27.89606419
            ],
            [
              88.135731,
              27.881618
            ]
          ]
        ]
      }
    }
  ]
}
