{
  "type": "FeatureCollection",
  "features": [
    {
      "type": "Feature",
      "properties": {
        "name": "NPL Territory 1",
        "layer": "protected_governed",
        "source": "Supplemental GeoJSON prepared outside the PDF for storytelling"
      },
      "geometry": {
        "type": "Polygon",
        "coordinates": [
          [
            [
              83.2,
              27.4
            ],
            [
              85.3,
              27.4
            ],
            [
              85.3,
              28.7
            ],
            [
              83.2,
              28.7
            ],
            [
              83.2,
              27.4
            ]
          ]
        ]
      }
    }
  ]
}