{
  "type": "FeatureCollection",
  "features": [
    {
      "type": "Feature",
      "properties": {
        "iso3": "BOL",
        "name": "Bolivia",
        "layer": "boundary",
        "geometry_quality": "authoritative",
        "geometry_source": "data/source/geo/countries_manifest.json + data/source/geo/countries_topojson/*.topo.json"
      },
      "geometry": {
        "type": "Polygon",
        "coordinates": [
          [
            [
              -58.168511,
              -20.172243
            ],
            [
              -58.18655459,
              -19.84931126
            ],
            [
              -58.25193939,
              -19.76577433
            ],
            [
              -58.98706906,
              -19.33687549
            ],
            [
              -59.16238222,
              -19.29031016
            ],
            [
              -59.86366944,
              -19.29432493
            ],
            [
              -60.08628086,
              -19.32314128
            ],
            [
              -60.60400477,
              -19.45724046
            ],
            [
              -61.4859371,
              -19.60349436
            ],
            [
              -61.82257236,
              -19.85802076
            ],
            [
              -62.17507113,
              -20.43725631
            ],
            [
              -62.26184167,
              -21.05853889
            ],
            [
              -62.64520233,
              -22.25046638
            ],
            [
              -62.77392986,
              -22.16689967
            ],
            [
              -62.91323011,
              -21.99895161
            ],
            [
              -63.90245105,
              -21.99873296
            ],
            [
              -64.02349572,
              -22.17708875
            ],
            [
              -64.26358761,
              -22.69199581
            ],
            [
              -64.36247641,
              -22.72210528
            ],
            [
              -64.55576102,
              -22.31793521
            ],
            [
              -64.64989823,
              -22.18861996
            ],
            [
              -65.01841398,
              -22.08677066
            ],
            [
              -65.4044863,
              -22.08813309
            ],
            [
              -65.83572965,
              -22.03873417
            ],
            [
              -66.09745647,
              -21.81893239
            ],
            [
              -66.20784768,
              -21.7879351
            ],
            [
              -66.24133967,
              -21.80201822
            ],
            [
              -66.274077,
              -21.9575075
            ],
            [
              -66.64595357,
              -22.21382434
            ],
            [
              -67.02320816,
              -22.5937766
            ],
            [
              -67.1807,
              -22.813797
            ],
            [
              -67.58448365,
              -22.89686438
            ],
            [
              -67.798456,
              -22.881218
            ],
            [
              -67.88211,
              -22.82742
            ],
            [
              -67.93412,
              -22.27649
            ],
            [
              -67.98293802,
              -22.04319357
            ],
            [
              -68.17947,
              -21.4306
            ],
            [
              -68.17909,
              -21.30201
            ],
            [
              -68.68616838,
              -20.50021004
            ],
            [
              -68.738882,
              -20.456079
            ],
            [
              -68.741488,
              -20.368656
            ],
            [
              -68.61650569,
              -19.79703155
            ],
            [
              -68.41972719,
              -19.43339292
            ],
            [
              -68.71308,
              -19.17026
            ],
            [
              -68.932678,
              -18.915135
            ],
            [
              -69.057246,
              -18.308767
            ],
            [
              -69.305722,
              -17.880088
            ],
            [
              -69.468453,
              -17.498344
            ],
            [
              -69.575733,
              -17.291777
            ],
            [
              -69.48133488,
              -17.12303522
            ],
            [
              -68.82480517,
              -16.35918236
            ],
            [
              -69.275522,
              -16.11857
            ],
            [
              -69.411646,
              -15.621759
            ],
            [
              -69.24396128,
              -15.43176415
            ],
            [
              -69.151581,
              -15.26742
            ],
            [
              -69.346227,
              -14.982135
            ],
            [
              -69.357539,
              -14.810663
            ],
            [
              -69.131033,
              -14.506272
            ],
            [
              -68.8553145,
              -14.21979349
            ],
            [
              -68.971174,
              -13.882908
            ],
            [
              -68.995993,
              -13.639411
            ],
            [
              -68.918737,
              -13.520848
            ],
            [
              -68.861647,
              -13.304398
            ],
            [
              -68.82489,
              -12.805408
            ],
            [
              -68.652329,
              -12.498116
            ],
            [
              -68.970084,
              -11.918149
            ],
            [
              -69.57292,
              -10.946172
            ],
            [
              -69.236245,
              -10.947196
            ],
            [
              -68.860178,
              -11.004645
            ],
            [
              -68.756246,
              -11.037549
            ],
            [
              -68.70702644,
              -11.14594306
            ],
            [
              -68.544445,
              -11.106778
            ],
            [
              -68.240697,
              -10.958609
            ],
            [
              -68.104835,
              -10.740563
            ],
            [
              -67.5378,
              -10.48845
            ],
            [
              -66.964066,
              -10.188637
            ],
            [
              -66.60911,
              -9.895181
            ],
            [
              -66.195056,
              -9.806309
            ],
            [
              -65.718885,
              -9.755953
            ],
            [
              -65.43728155,
              -9.67200155
            ],
            [
              -65.378304,
              -9.697125
            ],
            [
              -65.292963,
              -9.833299
            ],
            [
              -65.30766804,
              -10.09243053
            ],
            [
              -65.38709681,
              -10.38794737
            ],
            [
              -65.30962107,
              -10.83482629
            ],
            [
              -65.314634,
              -11.100408
            ],
            [
              -65.35951233,
              -11.25719449
            ],
            [
              -65.23369549,
              -11.67580942
            ],
            [
              -64.93826457,
              -12.00521573
            ],
            [
              -64.813217,
              -12.070335
            ],
            [
              -64.400918,
              -12.449021
            ],
            [
              -63.96666,
              -12.527624
            ],
            [
              -63.897801,
              -12.499692
            ],
            [
              -63.86551392,
              -12.45151855
            ],
            [
              -63.78100759,
              -12.43222005
            ],
            [
              -63.691548,
              -12.449421
            ],
            [
              -63.040132,
              -12.757607
            ],
            [
              -62.808902,
              -12.962137
            ],
            [
              -62.513769,
              -13.075819
            ],
            [
              -62.115209,
              -13.163681
            ],
            [
              -61.87580083,
              -13.50801172
            ],
            [
              -61.24379,
              -13.512812
            ],
            [
              -60.92275955,
              -13.56298201
            ],
            [
              -60.49434706,
              -13.79244154
            ],
            [
              -60.39771,
              -13.977565
            ],
            [
              -60.47888897,
              -14.11326654
            ],
            [
              -60.46215,
              -14.280603
            ],
            [
              -60.27112807,
              -14.63828792
            ],
            [
              -60.245063,
              -15.097173
            ],
            [
              -60.41001978,
              -15.09751909
            ],
            [
              -60.19996332,
              -15.9497634
            ],
            [
              -60.05955998,
              -16.26882137
            ],
            [
              -58.408921,
              -16.31041
            ],
            [
              -58.471976,
              -16.791442
            ],
            [
              -58.456171,
              -16.969391
            ],
            [
              -58.383949,
              -17.192184
            ],
            [
              -58.24645,
              -17.354892
            ],
            [
              -58.076425,
              -17.45628
            ],
            [
              -57.89783764,
              -17.45877946
            ],
            [
              -57.78427846,
              -17.58556261
            ],
            [
              -57.581836,
              -18.108279
            ],
            [
              -57.56554235,
              -18.25835647
            ],
            [
              -57.84990073,
              -19.17463052
            ],
            [
              -58.131153,
              -19.758446
            ],
            [
              -57.97552495,
              -19.88001533
            ],
            [
              -57.99394105,
              -20.05731612
            ],
            [
              -58.168511,
              -20.172243
            ]
          ]
        ]
      }
    }
  ]
}
