{
  "type": "FeatureCollection",
  "features": [
    {
      "type": "Feature",
      "properties": {
        "name": "CMR Territory 1",
        "layer": "protected_governed",
        "source": "Supplemental GeoJSON prepared outside the PDF for storytelling"
      },
      "geometry": {
        "type": "Polygon",
        "coordinates": [
          [
            [
              10.8,
              4.3
            ],
            [
              12.6,
              4.3
            ],
            [
              12.6,
              6.1
            ],
            [
              10.8,
              6.1
            ],
            [
              10.8,
              4.3
            ]
          ]
        ]
      }
    }
  ]
}