{
  "type": "FeatureCollection",
  "features": [
    {
      "type": "Feature",
      "properties": {
        "name": "PER Territory 1",
        "layer": "protected_governed",
        "source": "Supplemental GeoJSON prepared outside the PDF for storytelling"
      },
      "geometry": {
        "type": "Polygon",
        "coordinates": [
          [
            [
              -74.9,
              -8.6
            ],
            [
              -72.5,
              -8.6
            ],
            [
              -72.5,
              -6.2
            ],
            [
              -74.9,
              -6.2
            ],
            [
              -74.9,
              -8.6
            ]
          ]
        ]
      }
    },
    {
      "type": "Feature",
      "properties": {
        "name": "PER Territory 2",
        "layer": "protected_governed",
        "source": "Supplemental GeoJSON prepared outside the PDF for storytelling"
      },
      "geometry": {
        "type": "Polygon",
        "coordinates": [
          [
            [
              -73.6,
              -11.2
            ],
            [
              -71.2,
              -11.2
            ],
            [
              -71.2,
              -9.1
            ],
            [
              -73.6,
              -9.1
            ],
            [
              -73.6,
              -11.2
            ]
          ]
        ]
      }
    }
  ]
}