{
  "type": "FeatureCollection",
  "features": [
    {
      "type": "Feature",
      "properties": {
        "iso3": "GUY",
        "name": "Guyana",
        "layer": "boundary",
        "geometry_quality": "authoritative",
        "geometry_source": "data/source/geo/countries_manifest.json + data/source/geo/countries_topojson/*.topo.json"
      },
      "geometry": {
        "type": "Polygon",
        "coordinates": [
          [
            [
              -59.99721463,
              8.54575128
            ],
            [
              -59.80154419,
              8.3828268
            ],
            [
              -59.75751877,
              8.40129471
            ],
            [
              -59.68712616,
              8.37371445
            ],
            [
              -59.12628937,
              8.03359699
            ],
            [
              -58.63466644,
              7.55921602
            ],
            [
              -58.53091431,
              7.41008616
            ],
            [
              -58.46818924,
              7.29061794
            ],
            [
              -58.46608734,
              7.1244359
            ],
            [
              -58.479496,
              7.01212502
            ],
            [
              -58.54221344,
              6.95623493
            ],
            [
              -58.58712387,
              6.80894184
            ],
            [
              -58.61451721,
              6.41889
            ],
            [
              -58.57770538,
              6.45819902
            ],
            [
              -58.48070145,
              6.79878712
            ],
            [
              -58.41235352,
              6.87165403
            ],
            [
              -58.29232407,
              6.88942003
            ],
            [
              -58.03987503,
              6.81861401
            ],
            [
              -57.44460297,
              6.32219601
            ],
            [
              -57.23629379,
              6.18462181
            ],
            [
              -57.14886475,
              6.0064249
            ],
            [
              -57.1394537,
              5.81027547
            ],
            [
              -57.23345179,
              5.13394685
            ],
            [
              -57.30450018,
              5.01491772
            ],
            [
              -57.57442626,
              4.99973305
            ],
            [
              -57.90918412,
              4.78421255
            ],
            [
              -57.92955322,
              4.43872171
            ],
            [
              -58.0498701,
              4.15098024
            ],
            [
              -58.00373469,
              3.98343586
            ],
            [
              -57.77167011,
              3.62857479
            ],
            [
              -57.39405818,
              3.36658744
            ],
            [
              -57.25485586,
              3.11481247
            ],
            [
              -57.21016347,
              2.9420019
            ],
            [
              -56.77482508,
              2.14988862
            ],
            [
              -56.68761247,
              2.03353632
            ],
            [
              -56.47736721,
              1.94594242
            ],
            [
              -56.76656,
              1.878232
            ],
            [
              -56.972834,
              1.908215
            ],
            [
              -57.445988,
              1.870887
            ],
            [
              -57.688843,
              1.692332
            ],
            [
              -57.988842,
              1.576247
            ],
            [
              -58.147419,
              1.525498
            ],
            [
              -58.33369,
              1.575341
            ],
            [
              -58.457226,
              1.459806
            ],
            [
              -58.535835,
              1.262831
            ],
            [
              -58.893833,
              1.223371
            ],
            [
              -59.271736,
              1.399316
            ],
            [
              -59.666466,
              1.742506
            ],
            [
              -59.733658,
              2.091234
            ],
            [
              -59.906789,
              2.396465
            ],
            [
              -59.990018,
              2.691189
            ],
            [
              -59.97700053,
              2.93800802
            ],
            [
              -59.815112,
              3.485634
            ],
            [
              -59.757196,
              3.641438
            ],
            [
              -59.563667,
              3.970732
            ],
            [
              -59.703055,
              4.317049
            ],
            [
              -59.972859,
              4.493206
            ],
            [
              -60.074165,
              4.638237
            ],
            [
              -60.024161,
              4.748202
            ],
            [
              -59.978271,
              5.0361
            ],
            [
              -59.99418146,
              5.08482079
            ],
            [
              -60.20594292,
              5.27025654
            ],
            [
              -60.67513293,
              5.23174193
            ],
            [
              -60.73638932,
              5.20138956
            ],
            [
              -61.3505428,
              5.87991209
            ],
            [
              -61.142703,
              6.281129
            ],
            [
              -61.151441,
              6.411391
            ],
            [
              -61.224252,
              6.589793
            ],
            [
              -61.120047,
              6.726078
            ],
            [
              -60.753747,
              6.765911
            ],
            [
              -60.365933,
              6.967597
            ],
            [
              -60.312783,
              7.033254
            ],
            [
              -60.294577,
              7.130876
            ],
            [
              -60.450408,
              7.204191
            ],
            [
              -60.517835,
              7.16535
            ],
            [
              -60.614452,
              7.291131
            ],
            [
              -60.683647,
              7.463733
            ],
            [
              -60.540174,
              7.815728
            ],
            [
              -60.361729,
              7.824885
            ],
            [
              -59.810651,
              8.267923
            ],
            [
              -59.806507,
              8.304363
            ],
            [
              -59.99721463,
              8.54575128
            ]
          ]
        ]
      }
    }
  ]
}
