{
  "type": "FeatureCollection",
  "features": [
    {
      "type": "Feature",
      "properties": {
        "name": "GUY Territory 1",
        "layer": "protected_governed",
        "source": "Supplemental GeoJSON prepared outside the PDF for storytelling"
      },
      "geometry": {
        "type": "Polygon",
        "coordinates": [
          [
            [
              -60.4,
              5.2
            ],
            [
              -58.5,
              5.2
            ],
            [
              -58.5,
              6.5
            ],
            [
              -60.4,
              6.5
            ],
            [
              -60.4,
              5.2
            ]
          ]
        ]
      }
    }
  ]
}