{
  "type": "FeatureCollection",
  "features": [
    {
      "type": "Feature",
      "properties": {
        "iso3": "COL",
        "name": "Colombia",
        "layer": "boundary",
        "geometry_quality": "authoritative",
        "geometry_source": "data/source/geo/countries_manifest.json + data/source/geo/countries_topojson/*.topo.json"
      },
      "geometry": {
        "type": "Polygon",
        "coordinates": [
          [
            [
              -72.13962286,
              11.33970251
            ],
            [
              -72.49569797,
              11.07963576
            ],
            [
              -72.89395727,
              10.44684469
            ],
            [
              -72.9712447,
              9.80915372
            ],
            [
              -73.34698798,
              9.21728342
            ],
            [
              -73.33675952,
              9.17255853
            ],
            [
              -73.194944,
              9.176609
            ],
            [
              -73.07705283,
              9.24635182
            ],
            [
              -72.85468777,
              9.12935167
            ],
            [
              -72.74886566,
              9.01675147
            ],
            [
              -72.63402446,
              8.60587783
            ],
            [
              -72.40854549,
              8.3707528
            ],
            [
              -72.38240447,
              8.30571858
            ],
            [
              -72.36300171,
              8.01217694
            ],
            [
              -72.416171,
              8.02976537
            ],
            [
              -72.48022785,
              7.93019982
            ],
            [
              -72.46397861,
              7.4822622
            ],
            [
              -72.441444,
              7.425094
            ],
            [
              -71.84163336,
              7.0282116
            ],
            [
              -71.31729166,
              7.02142886
            ],
            [
              -70.58501125,
              7.0703034
            ],
            [
              -70.14506256,
              6.97967467
            ],
            [
              -69.42758535,
              6.10748029
            ],
            [
              -69.30914477,
              6.0850771
            ],
            [
              -69.22073173,
              6.08886275
            ],
            [
              -68.94304699,
              6.18243008
            ],
            [
              -68.64847045,
              6.13270879
            ],
            [
              -68.25901863,
              6.18320133
            ],
            [
              -67.91145714,
              6.25193009
            ],
            [
              -67.81995604,
              6.32673968
            ],
            [
              -67.5656778,
              6.27909428
            ],
            [
              -67.48466041,
              6.21780488
            ],
            [
              -67.449492,
              6.055678
            ],
            [
              -67.46244682,
              5.94898243
            ],
            [
              -67.852422,
              5.251846
            ],
            [
              -67.82289552,
              4.49741716
            ],
            [
              -67.750812,
              4.150379
            ],
            [
              -67.63486711,
              3.78776173
            ],
            [
              -67.60826355,
              3.7532483
            ],
            [
              -67.55103726,
              3.75562235
            ],
            [
              -67.43960148,
              3.62923677
            ],
            [
              -67.3109841,
              3.37615037
            ],
            [
              -67.80805091,
              2.83113707
            ],
            [
              -67.583651,
              2.770371
            ],
            [
              -67.254849,
              2.422106
            ],
            [
              -66.88198747,
              1.40115129
            ],
            [
              -66.85291628,
              1.22955673
            ],
            [
              -67.08659374,
              1.16729123
            ],
            [
              -67.09830069,
              1.29216535
            ],
            [
              -67.06533723,
              1.51459736
            ],
            [
              -67.10805647,
              1.71028423
            ],
            [
              -67.35090426,
              2.11945633
            ],
            [
              -67.40744026,
              2.1442979
            ],
            [
              -67.58123608,
              2.06215891
            ],
            [
              -67.6827439,
              1.95389344
            ],
            [
              -68.20894023,
              1.72866623
            ],
            [
              -69.59749414,
              1.74876777
            ],
            [
              -69.84522089,
              1.71351299
            ],
            [
              -69.84618665,
              1.07852339
            ],
            [
              -69.32803456,
              1.08575456
            ],
            [
              -69.2461811,
              1.04853979
            ],
            [
              -69.18297204,
              0.93626096
            ],
            [
              -69.12891069,
              0.63797173
            ],
            [
              -69.29268634,
              0.61016376
            ],
            [
              -69.42231938,
              0.69087508
            ],
            [
              -70.02595312,
              0.56105893
            ],
            [
              -70.04913636,
              -0.1367963
            ],
            [
              -69.92809245,
              -0.31514369
            ],
            [
              -69.57767062,
              -0.6657471
            ],
            [
              -69.42822328,
              -1.01522405
            ],
            [
              -69.40755122,
              -1.30077238
            ],
            [
              -69.947326,
              -4.22711
            ],
            [
              -70.054055,
              -4.10124
            ],
            [
              -70.426037,
              -3.832667
            ],
            [
              -70.61667524,
              -3.64141383
            ],
            [
              -70.055529,
              -2.75926
            ],
            [
              -70.064073,
              -2.686263
            ],
            [
              -70.848104,
              -2.254927
            ],
            [
              -70.967787,
              -2.217592
            ],
            [
              -71.139608,
              -2.311586
            ],
            [
              -71.863168,
              -2.264774
            ],
            [
              -71.93686,
              -2.377798
            ],
            [
              -72.192798,
              -2.436668
            ],
            [
              -72.941298,
              -2.4088
            ],
            [
              -73.093379,
              -2.320715
            ],
            [
              -73.2311225,
              -1.7709795
            ],
            [
              -73.48433295,
              -1.60552054
            ],
            [
              -73.682038,
              -1.238524
            ],
            [
              -74.205904,
              -1.010687
            ],
            [
              -74.26881,
              -0.956503
            ],
            [
              -74.344791,
              -0.673356
            ],
            [
              -74.420558,
              -0.505348
            ],
            [
              -74.837402,
              -0.215171
            ],
            [
              -75.093827,
              -0.079926
            ],
            [
              -75.221361,
              -0.054989
            ],
            [
              -75.25866834,
              -0.1135755
            ],
            [
              -75.76645721,
              0.04022104
            ],
            [
              -76.05154419,
              0.33041189
            ],
            [
              -76.26026922,
              0.41584737
            ],
            [
              -76.38320121,
              0.38903281
            ],
            [
              -76.41183245,
              0.35097261
            ],
            [
              -76.42291702,
              0.23430248
            ],
            [
              -77.0848872,
              0.306524
            ],
            [
              -77.36686329,
              0.39777301
            ],
            [
              -77.52074043,
              0.51485564
            ],
            [
              -77.81403368,
              0.81938701
            ],
            [
              -78.24568105,
              1.02876177
            ],
            [
              -78.58862992,
              1.24197538
            ],
            [
              -78.78146042,
              1.4007239
            ],
            [
              -78.90215302,
              1.55698502
            ],
            [
              -78.75861359,
              1.8048389
            ],
            [
              -78.5661112,
              1.76136349
            ],
            [
              -78.53806305,
              1.91396105
            ],
            [
              -78.67375266,
              2.00004816
            ],
            [
              -78.71661211,
              2.1634924
            ],
            [
              -78.64640149,
              2.33510315
            ],
            [
              -78.51958352,
              2.52718799
            ],
            [
              -77.80078125,
              2.6764009
            ],
            [
              -77.68697357,
              2.86020398
            ],
            [
              -77.64888,
              3.04977989
            ],
            [
              -77.53685761,
              3.23421502
            ],
            [
              -77.12771607,
              3.69414592
            ],
            [
              -77.10170746,
              3.79268599
            ],
            [
              -77.1055069,
              3.88292098
            ],
            [
              -77.19459534,
              4.06880283
            ],
            [
              -77.24769592,
              4.10220003
            ],
            [
              -77.31117248,
              4.03157282
            ],
            [
              -77.42958069,
              4.0125432
            ],
            [
              -77.52856818,
              4.11572099
            ],
            [
              -77.53751299,
              4.18408489
            ],
            [
              -77.52026228,
              4.2786443
            ],
            [
              -77.44231466,
              4.32464618
            ],
            [
              -77.34264393,
              4.50801477
            ],
            [
              -77.3128891,
              4.67967272
            ],
            [
              -77.3897934,
              5.45192098
            ],
            [
              -77.34239197,
              6.57541895
            ],
            [
              -77.65909576,
              6.9880681
            ],
            [
              -77.8931719,
              7.22131902
            ],
            [
              -77.79235929,
              7.48097992
            ],
            [
              -77.61052429,
              7.55221213
            ],
            [
              -77.36594463,
              7.8245468
            ],
            [
              -77.16394309,
              7.96842089
            ],
            [
              -77.35243506,
              8.32641726
            ],
            [
              -77.36980435,
              8.67543622
            ],
            [
              -76.8562088,
              8.09211445
            ],
            [
              -76.85678101,
              8.06295967
            ],
            [
              -76.9238205,
              8.02943897
            ],
            [
              -76.92613983,
              7.92282486
            ],
            [
              -76.85728455,
              7.90156126
            ],
            [
              -76.77279141,
              7.92451892
            ],
            [
              -76.74547851,
              8.04122508
            ],
            [
              -76.76504517,
              8.39616489
            ],
            [
              -76.82439423,
              8.49610233
            ],
            [
              -76.26309327,
              9.01361553
            ],
            [
              -76.08536067,
              9.33462197
            ],
            [
              -75.91225488,
              9.43158501
            ],
            [
              -75.84751835,
              9.42678718
            ],
            [
              -75.60252904,
              9.67569631
            ],
            [
              -75.57941176,
              10.22185498
            ],
            [
              -75.51043819,
              10.37369082
            ],
            [
              -75.51170508,
              10.57226618
            ],
            [
              -74.8526836,
              11.0801113
            ],
            [
              -74.53456116,
              10.99147606
            ],
            [
              -74.32301558,
              10.98017394
            ],
            [
              -74.21555328,
              11.06837654
            ],
            [
              -74.2310947,
              11.22605773
            ],
            [
              -74.13943539,
              11.33317765
            ],
            [
              -73.98427715,
              11.33980362
            ],
            [
              -73.81255399,
              11.26250059
            ],
            [
              -73.44213911,
              11.2571432
            ],
            [
              -73.28509469,
              11.28093781
            ],
            [
              -72.77113111,
              11.67592834
            ],
            [
              -72.45989761,
              11.77824516
            ],
            [
              -72.1388745,
              12.11113549
            ],
            [
              -71.6616253,
              12.45898784
            ],
            [
              -71.27281022,
              12.33833385
            ],
            [
              -71.11747742,
              12.09906387
            ],
            [
              -71.12397003,
              12.02026272
            ],
            [
              -71.32377572,
              11.84821348
            ],
            [
              -71.9641503,
              11.64574617
            ],
            [
              -72.13962286,
              11.33970251
            ]
          ]
        ]
      }
    }
  ]
}
