{
  "type": "FeatureCollection",
  "features": [
    {
      "type": "Feature",
      "properties": {
        "iso3": "PER",
        "name": "Peru",
        "layer": "boundary",
        "geometry_quality": "authoritative",
        "geometry_source": "geo/countries_manifest.json + geo/countries_topojson/*.topo.json"
      },
      "geometry": {
        "type": "Polygon",
        "coordinates": [
          [
            [
              -72.941298,
              -2.4088
            ],
            [
              -72.192798,
              -2.436668
            ],
            [
              -71.93686,
              -2.377798
            ],
            [
              -71.863168,
              -2.264774
            ],
            [
              -71.139608,
              -2.311586
            ],
            [
              -70.967787,
              -2.217592
            ],
            [
              -70.848104,
              -2.254927
            ],
            [
              -70.064073,
              -2.686263
            ],
            [
              -70.055529,
              -2.75926
            ],
            [
              -70.61667524,
              -3.64141383
            ],
            [
              -70.426037,
              -3.832667
            ],
            [
              -70.054055,
              -4.10124
            ],
            [
              -69.947326,
              -4.22711
            ],
            [
              -69.951703,
              -4.311101
            ],
            [
              -70.025037,
              -4.365642
            ],
            [
              -70.168616,
              -4.310852
            ],
            [
              -70.280904,
              -4.215725
            ],
            [
              -70.438838,
              -4.145859
            ],
            [
              -70.66444,
              -4.167389
            ],
            [
              -70.856492,
              -4.279225
            ],
            [
              -71.162609,
              -4.391761
            ],
            [
              -71.925164,
              -4.54925
            ],
            [
              -72.506749,
              -4.943103
            ],
            [
              -72.849457,
              -5.139584
            ],
            [
              -72.878359,
              -5.179238
            ],
            [
              -72.958871,
              -5.577287
            ],
            [
              -73.148852,
              -5.868346
            ],
            [
              -73.183203,
              -6.259513
            ],
            [
              -73.106839,
              -6.420485
            ],
            [
              -73.132633,
              -6.497887
            ],
            [
              -73.243966,
              -6.586837
            ],
            [
              -73.369959,
              -6.609679
            ],
            [
              -73.540494,
              -6.689181
            ],
            [
              -73.632429,
              -6.752778
            ],
            [
              -73.716641,
              -6.86457
            ],
            [
              -73.760889,
              -6.936443
            ],
            [
              -73.847837,
              -7.352935
            ],
            [
              -73.87237,
              -7.667542
            ],
            [
              -73.734185,
              -7.878179
            ],
            [
              -73.502794,
              -8.375933
            ],
            [
              -72.961295,
              -8.982028
            ],
            [
              -72.94805,
              -9.124481
            ],
            [
              -73.10619,
              -9.293832
            ],
            [
              -72.9224805,
              -9.41163285
            ],
            [
              -72.411909,
              -9.481465
            ],
            [
              -72.30127,
              -9.533117
            ],
            [
              -72.19325,
              -9.777287
            ],
            [
              -72.175768,
              -9.984608
            ],
            [
              -72.105093,
              -10.00030358
            ],
            [
              -71.3841365,
              -10.00013709
            ],
            [
              -71.223781,
              -9.969421
            ],
            [
              -70.619509,
              -9.472554
            ],
            [
              -70.516402,
              -9.480359
            ],
            [
              -70.620918,
              -9.827967
            ],
            [
              -70.620864,
              -10.999892
            ],
            [
              -70.157726,
              -11.038824
            ],
            [
              -69.758566,
              -10.941972
            ],
            [
              -69.57292,
              -10.946172
            ],
            [
              -68.970084,
              -11.918149
            ],
            [
              -68.652329,
              -12.498116
            ],
            [
              -68.82489,
              -12.805408
            ],
            [
              -68.861647,
              -13.304398
            ],
            [
              -68.918737,
              -13.520848
            ],
            [
              -68.995993,
              -13.639411
            ],
            [
              -68.971174,
              -13.882908
            ],
            [
              -68.8553145,
              -14.21979349
            ],
            [
              -69.131033,
              -14.506272
            ],
            [
              -69.357539,
              -14.810663
            ],
            [
              -69.346227,
              -14.982135
            ],
            [
              -69.151581,
              -15.26742
            ],
            [
              -69.24396128,
              -15.43176415
            ],
            [
              -69.411646,
              -15.621759
            ],
            [
              -69.275522,
              -16.11857
            ],
            [
              -68.82480517,
              -16.35918236
            ],
            [
              -69.48133488,
              -17.12303522
            ],
            [
              -69.575733,
              -17.291777
            ],
            [
              -69.468453,
              -17.498344
            ],
            [
              -69.656956,
              -17.653116
            ],
            [
              -69.759364,
              -17.936857
            ],
            [
              -69.755261,
              -17.986625
            ],
            [
              -69.860052,
              -18.170019
            ],
            [
              -70.00503588,
              -18.27074898
            ],
            [
              -70.37783945,
              -18.35231111
            ],
            [
              -71.31243134,
              -17.71402359
            ],
            [
              -71.35186005,
              -17.60426331
            ],
            [
              -71.65769958,
              -17.22151947
            ],
            [
              -72.82865906,
              -16.58012962
            ],
            [
              -73.66716003,
              -16.22382545
            ],
            [
              -74.25644684,
              -15.87116241
            ],
            [
              -74.85322571,
              -15.55691242
            ],
            [
              -75.19129181,
              -15.30708218
            ],
            [
              -75.70265198,
              -14.81813908
            ],
            [
              -75.89505768,
              -14.67540741
            ],
            [
              -76.2590332,
              -14.16671753
            ],
            [
              -76.32066345,
              -13.91905785
            ],
            [
              -76.29493713,
              -13.81653881
            ],
            [
              -76.25718689,
              -13.85597992
            ],
            [
              -76.19352722,
              -13.62402725
            ],
            [
              -76.20631409,
              -13.39989853
            ],
            [
              -76.36177826,
              -13.18868065
            ],
            [
              -76.78643036,
              -12.45631695
            ],
            [
              -76.94097137,
              -12.25783539
            ],
            [
              -78.14620209,
              -10.17397118
            ],
            [
              -78.42805481,
              -9.37145519
            ],
            [
              -78.50984192,
              -9.25673294
            ],
            [
              -78.90911102,
              -8.3780365
            ],
            [
              -79.5072937,
              -7.55155325
            ],
            [
              -79.73634338,
              -7.050035
            ],
            [
              -79.98343658,
              -6.74280405
            ],
            [
              -80.22240448,
              -6.571949
            ],
            [
              -80.73590088,
              -6.31880283
            ],
            [
              -81.09441376,
              -6.0769
            ],
            [
              -81.1445694,
              -5.980618
            ],
            [
              -81.13089752,
              -5.87605715
            ],
            [
              -81.07875824,
              -5.79646301
            ],
            [
              -80.94193268,
              -5.84821987
            ],
            [
              -80.84905243,
              -5.79611206
            ],
            [
              -80.84577942,
              -5.6303339
            ],
            [
              -80.91044617,
              -5.47903013
            ],
            [
              -81.03179932,
              -5.34682894
            ],
            [
              -81.3170929,
              -4.66813803
            ],
            [
              -81.25101471,
              -4.33114719
            ],
            [
              -81.2098999,
              -4.23491192
            ],
            [
              -80.69754028,
              -3.69076991
            ],
            [
              -80.32366378,
              -3.43244375
            ],
            [
              -80.22909833,
              -3.4283877
            ],
            [
              -80.19262575,
              -3.68015252
            ],
            [
              -80.32859347,
              -4.00475007
            ],
            [
              -80.44494318,
              -4.20310701
            ],
            [
              -80.44097666,
              -4.45426896
            ],
            [
              -80.39717073,
              -4.47918819
            ],
            [
              -80.33650685,
              -4.46686191
            ],
            [
              -80.21868269,
              -4.3605622
            ],
            [
              -79.93477523,
              -4.39570867
            ],
            [
              -79.70525603,
              -4.47050194
            ],
            [
              -79.48509512,
              -4.62820266
            ],
            [
              -79.40791016,
              -4.79647443
            ],
            [
              -79.28332066,
              -4.94738994
            ],
            [
              -78.99548856,
              -4.97334802
            ],
            [
              -78.71854907,
              -4.62814033
            ],
            [
              -78.62645018,
              -4.41661966
            ],
            [
              -78.3530246,
              -3.41173624
            ],
            [
              -77.65732731,
              -2.93587268
            ],
            [
              -76.63357143,
              -2.59018879
            ],
            [
              -76.04325305,
              -2.12461958
            ],
            [
              -75.57755657,
              -1.54771216
            ],
            [
              -75.40779633,
              -1.00710216
            ],
            [
              -75.23020363,
              -0.85623818
            ],
            [
              -75.24296395,
              -0.64174908
            ],
            [
              -75.31130774,
              -0.47720435
            ],
            [
              -75.58585597,
              -0.18802116
            ],
            [
              -75.25866834,
              -0.1135755
            ],
            [
              -75.221361,
              -0.054989
            ],
            [
              -75.093827,
              -0.079926
            ],
            [
              -74.837402,
              -0.215171
            ],
            [
              -74.420558,
              -0.505348
            ],
            [
              -74.344791,
              -0.673356
            ],
            [
              -74.26881,
              -0.956503
            ],
            [
              -74.205904,
              -1.010687
            ],
            [
              -73.682038,
              -1.238524
            ],
            [
              -73.48433295,
              -1.60552054
            ],
            [
              -73.2311225,
              -1.7709795
            ],
            [
              -73.093379,
              -2.320715
            ],
            [
              -72.941298,
              -2.4088
            ]
          ]
        ]
      }
    }
  ]
}
