{
  "type": "FeatureCollection",
  "features": [
    {
      "type": "Feature",
      "properties": {
        "iso3": "LBR",
        "name": "Liberia",
        "layer": "boundary",
        "geometry_quality": "authoritative",
        "geometry_source": "data/source/geo/countries_manifest.json + data/source/geo/countries_topojson/*.topo.json"
      },
      "geometry": {
        "type": "Polygon",
        "coordinates": [
          [
            [
              -8.470911,
              7.557276
            ],
            [
              -8.409092,
              7.466622
            ],
            [
              -8.31204,
              7.194758
            ],
            [
              -8.292117,
              7.039314
            ],
            [
              -8.345168,
              6.769281
            ],
            [
              -8.525173,
              6.605476
            ],
            [
              -8.595004,
              6.500836
            ],
            [
              -8.261279,
              6.320551
            ],
            [
              -8.106612,
              6.291789
            ],
            [
              -8.002911,
              6.320195
            ],
            [
              -7.900693,
              6.274362
            ],
            [
              -7.56185,
              5.86689
            ],
            [
              -7.438668,
              5.786793
            ],
            [
              -7.389425,
              5.629774
            ],
            [
              -7.388913,
              5.371756
            ],
            [
              -7.580484,
              4.91297
            ],
            [
              -7.562035,
              4.419457
            ],
            [
              -7.52719719,
              4.36233089
            ],
            [
              -7.72602606,
              4.37543201
            ],
            [
              -8.37057225,
              4.6434846
            ],
            [
              -9.22938924,
              5.11960533
            ],
            [
              -9.44085142,
              5.28792816
            ],
            [
              -10.06465162,
              5.90405327
            ],
            [
              -11.36544839,
              6.78589555
            ],
            [
              -11.49945633,
              6.923715
            ],
            [
              -11.426202,
              6.941052
            ],
            [
              -11.267739,
              7.232488
            ],
            [
              -10.802796,
              7.591798
            ],
            [
              -10.300294,
              8.20323
            ],
            [
              -10.2792293,
              8.48468839
            ],
            [
              -9.800447,
              8.524626
            ],
            [
              -9.727802,
              8.513348
            ],
            [
              -9.630291,
              8.438546
            ],
            [
              -9.50736,
              8.306298
            ],
            [
              -9.364689,
              7.727303
            ],
            [
              -9.423084,
              7.424436
            ],
            [
              -9.050239,
              7.215463
            ],
            [
              -8.836803,
              7.286529
            ],
            [
              -8.718875,
              7.582028
            ],
            [
              -8.551671,
              7.620623
            ],
            [
              -8.470911,
              7.557276
            ]
          ]
        ]
      }
    }
  ]
}
