{
  "type": "FeatureCollection",
  "features": [
    {
      "type": "Feature",
      "properties": {
        "name": "LBR Territory 1",
        "layer": "protected_governed",
        "source": "Supplemental GeoJSON prepared outside the PDF for storytelling"
      },
      "geometry": {
        "type": "Polygon",
        "coordinates": [
          [
            [
              -10.6,
              5.3
            ],
            [
              -8.9,
              5.3
            ],
            [
              -8.9,
              6.8
            ],
            [
              -10.6,
              6.8
            ],
            [
              -10.6,
              5.3
            ]
          ]
        ]
      }
    }
  ]
}