{
  "type": "FeatureCollection",
  "features": [
    {
      "type": "Feature",
      "properties": {
        "iso3": "BLZ",
        "name": "Belize",
        "layer": "boundary",
        "geometry_quality": "authoritative",
        "geometry_source": "geo/countries_manifest.json + geo/countries_topojson/*.topo.json"
      },
      "geometry": {
        "type": "Polygon",
        "coordinates": [
          [
            [
              -88.14330828,
              18.00983987
            ],
            [
              -88.2193273,
              17.79635701
            ],
            [
              -88.29301445,
              17.30234997
            ],
            [
              -88.22643951,
              16.98276695
            ],
            [
              -88.33172352,
              16.63671717
            ],
            [
              -88.49203971,
              16.34441704
            ],
            [
              -88.5794849,
              16.25522295
            ],
            [
              -88.65783579,
              16.26629934
            ],
            [
              -88.7486622,
              16.20392177
            ],
            [
              -88.93160855,
              15.9519408
            ],
            [
              -88.941725,
              15.890035
            ],
            [
              -89.215128,
              15.891043
            ],
            [
              -89.1535363,
              17.00677376
            ],
            [
              -89.151961,
              17.8156931
            ],
            [
              -89.133031,
              17.969142
            ],
            [
              -89.050178,
              17.999073
            ],
            [
              -88.928605,
              17.930348
            ],
            [
              -88.636757,
              18.214161
            ],
            [
              -88.453633,
              18.484438
            ],
            [
              -88.31600763,
              18.48735338
            ],
            [
              -88.3866391,
              18.38993497
            ],
            [
              -88.12413025,
              18.36631012
            ],
            [
              -88.14330828,
              18.00983987
            ]
          ]
        ]
      }
    }
  ]
}
