{
  "type": "FeatureCollection",
  "features": [
    {
      "type": "Feature",
      "properties": {
        "iso3": "KHM",
        "name": "Cambodia",
        "layer": "boundary",
        "geometry_quality": "authoritative",
        "geometry_source": "geo/countries_manifest.json + geo/countries_topojson/*.topo.json"
      },
      "geometry": {
        "type": "Polygon",
        "coordinates": [
          [
            [
              107.55613207,
              14.68660178
            ],
            [
              107.39816684,
              13.99344471
            ],
            [
              107.564022,
              13.67761009
            ],
            [
              107.62826287,
              13.48360225
            ],
            [
              107.63130708,
              13.36515472
            ],
            [
              107.57809658,
              13.23222112
            ],
            [
              107.56142376,
              12.74623407
            ],
            [
              107.58646529,
              12.56294959
            ],
            [
              107.5520613,
              12.39285095
            ],
            [
              107.51454912,
              12.33345081
            ],
            [
              107.44224118,
              12.26599115
            ],
            [
              107.38480065,
              12.28172528
            ],
            [
              107.10141123,
              12.20489152
            ],
            [
              106.57715145,
              11.97164645
            ],
            [
              106.44225412,
              11.83253495
            ],
            [
              106.26920041,
              11.71720665
            ],
            [
              106.07211903,
              11.77369078
            ],
            [
              105.8999494,
              11.67150454
            ],
            [
              105.85543624,
              11.56426387
            ],
            [
              105.87173057,
              11.32341144
            ],
            [
              105.90916437,
              11.24851527
            ],
            [
              106.03002386,
              11.14282524
            ],
            [
              106.10385012,
              11.08323872
            ],
            [
              106.15292635,
              11.10502212
            ],
            [
              106.17577032,
              11.07576709
            ],
            [
              106.21089912,
              10.97641204
            ],
            [
              106.19710842,
              10.78794515
            ],
            [
              105.86055804,
              10.88893078
            ],
            [
              105.49401104,
              10.94859379
            ],
            [
              105.0770085,
              10.7781194
            ],
            [
              104.73585857,
              10.5249637
            ],
            [
              104.44526077,
              10.42606886
            ],
            [
              104.2013491,
              10.55929595
            ],
            [
              103.85382843,
              10.60191441
            ],
            [
              103.75398671,
              10.53210516
            ],
            [
              103.63097999,
              10.74053908
            ],
            [
              103.71263789,
              10.85070151
            ],
            [
              103.67162346,
              11.05953259
            ],
            [
              103.54907749,
              11.16710677
            ],
            [
              103.50396304,
              11.16654083
            ],
            [
              103.44496073,
              11.10254192
            ],
            [
              103.42045848,
              10.91871051
            ],
            [
              103.34851809,
              10.88469899
            ],
            [
              103.12743764,
              10.87360971
            ],
            [
              103.10280928,
              10.91516605
            ],
            [
              103.10579175,
              11.29928682
            ],
            [
              102.91094702,
              11.64720826
            ],
            [
              102.90407,
              11.77688
            ],
            [
              102.35158,
              13.29777
            ],
            [
              102.3518068,
              13.52201003
            ],
            [
              102.41331323,
              13.56467471
            ],
            [
              102.6129825,
              13.61353906
            ],
            [
              102.97702688,
              14.20233144
            ],
            [
              103.14757,
              14.3183
            ],
            [
              103.59558698,
              14.41464689
            ],
            [
              104.01691,
              14.33829
            ],
            [
              104.82656535,
              14.42178767
            ],
            [
              104.97111985,
              14.38383359
            ],
            [
              105.03071,
              14.23097
            ],
            [
              105.08592,
              14.20729
            ],
            [
              105.15472,
              14.24447
            ],
            [
              105.20007032,
              14.34270871
            ],
            [
              105.27111359,
              14.18421572
            ],
            [
              105.37307242,
              14.10220455
            ],
            [
              105.79276979,
              14.01930286
            ],
            [
              105.93418251,
              13.92855045
            ],
            [
              106.09943855,
              13.91686849
            ],
            [
              106.18502185,
              14.05649816
            ],
            [
              106.04589408,
              14.2234959
            ],
            [
              105.99908124,
              14.36810883
            ],
            [
              106.33258899,
              14.44056095
            ],
            [
              106.67788877,
              14.43058271
            ],
            [
              106.83460528,
              14.30371695
            ],
            [
              106.93710754,
              14.32391012
            ],
            [
              107.25119905,
              14.47930969
            ],
            [
              107.55613207,
              14.68660178
            ]
          ]
        ]
      }
    }
  ]
}
