{
  "type": "FeatureCollection",
  "features": [
    {
      "type": "Feature",
      "properties": {
        "iso3": "BFA",
        "name": "Burkina Faso",
        "layer": "boundary",
        "geometry_quality": "authoritative",
        "geometry_source": "geo/countries_manifest.json + geo/countries_topojson/*.topo.json"
      },
      "geometry": {
        "type": "Polygon",
        "coordinates": [
          [
            [
              0.23313197,
              14.91625936
            ],
            [
              0.19111909,
              14.82272069
            ],
            [
              0.161694,
              14.5335
            ],
            [
              0.381056,
              14.051306
            ],
            [
              0.608926,
              13.744523
            ],
            [
              1.228236,
              13.391542
            ],
            [
              1.254598,
              13.340161
            ],
            [
              1.173969,
              13.322208
            ],
            [
              0.991917,
              13.374694
            ],
            [
              0.991917,
              13.103333
            ],
            [
              1.868583,
              12.605333
            ],
            [
              1.984951,
              12.735867
            ],
            [
              2.108834,
              12.723544
            ],
            [
              2.22804,
              12.565124
            ],
            [
              2.275193,
              12.429314
            ],
            [
              2.084725,
              12.392766
            ],
            [
              2.066294,
              12.358002
            ],
            [
              2.407427,
              11.898873
            ],
            [
              2.30694855,
              11.69243329
            ],
            [
              2.02843071,
              11.43582544
            ],
            [
              1.94285078,
              11.41584406
            ],
            [
              1.38787239,
              11.44130645
            ],
            [
              1.1421882,
              11.17491996
            ],
            [
              0.91416014,
              11.00111718
            ],
            [
              0.62930312,
              10.9873192
            ],
            [
              -0.13571276,
              11.13849548
            ],
            [
              -0.24781293,
              11.16251488
            ],
            [
              -0.65840483,
              10.97507298
            ],
            [
              -0.96381207,
              11.00056771
            ],
            [
              -2.8337019,
              11.00668832
            ],
            [
              -2.92963925,
              10.60063677
            ],
            [
              -2.79795388,
              10.27626635
            ],
            [
              -2.75142424,
              9.94201822
            ],
            [
              -2.77140117,
              9.60080161
            ],
            [
              -2.687203,
              9.491666
            ],
            [
              -2.75811211,
              9.41151431
            ],
            [
              -2.78301776,
              9.41862524
            ],
            [
              -2.92852773,
              9.57044816
            ],
            [
              -3.03562146,
              9.73469925
            ],
            [
              -3.15949497,
              9.84556322
            ],
            [
              -3.42016955,
              9.92741675
            ],
            [
              -3.64360688,
              9.94815523
            ],
            [
              -3.90581037,
              9.89470641
            ],
            [
              -4.15760296,
              9.81454808
            ],
            [
              -4.46805733,
              9.65102041
            ],
            [
              -4.7132301,
              9.70392624
            ],
            [
              -4.96014734,
              9.93458979
            ],
            [
              -5.01812577,
              10.10127904
            ],
            [
              -5.13788442,
              10.30044665
            ],
            [
              -5.35389175,
              10.29250195
            ],
            [
              -5.513207,
              10.430789
            ],
            [
              -5.346713,
              11.125156
            ],
            [
              -5.19953823,
              11.44187064
            ],
            [
              -5.26060168,
              11.73358687
            ],
            [
              -5.36031495,
              11.83157265
            ],
            [
              -5.05931738,
              11.97887521
            ],
            [
              -4.72315804,
              12.02443259
            ],
            [
              -4.553867,
              12.157883
            ],
            [
              -4.26479,
              12.70655
            ],
            [
              -4.33370614,
              13.14671358
            ],
            [
              -4.100642,
              13.356903
            ],
            [
              -3.933716,
              13.42555
            ],
            [
              -3.58769,
              13.20077
            ],
            [
              -3.42742,
              13.20081
            ],
            [
              -3.282042,
              13.28702566
            ],
            [
              -3.25712847,
              13.403797
            ],
            [
              -2.852213,
              14.004841
            ],
            [
              -2.474126,
              14.298003
            ],
            [
              -2.18786941,
              14.19643526
            ],
            [
              -1.79364375,
              14.48251836
            ],
            [
              -1.138335,
              14.771847
            ],
            [
              -0.710942,
              15.082816
            ],
            [
              -0.246214,
              15.077772
            ],
            [
              0.23313197,
              14.91625936
            ]
          ]
        ]
      }
    }
  ]
}
