{
  "type": "FeatureCollection",
  "features": [
    {
      "type": "Feature",
      "properties": {
        "iso3": "BRA",
        "name": "Brazil",
        "layer": "boundary",
        "geometry_quality": "authoritative",
        "geometry_source": "data/source/geo/countries_manifest.json + data/source/geo/countries_topojson/*.topo.json"
      },
      "geometry": {
        "type": "MultiPolygon",
        "coordinates": [
          [
            [
              [
                -59.703055,
                4.317049
              ],
              [
                -59.563667,
                3.970732
              ],
              [
                -59.757196,
                3.641438
              ],
              [
                -59.815112,
                3.485634
              ],
              [
                -59.97700053,
                2.93800802
              ],
              [
                -59.990018,
                2.691189
              ],
              [
                -59.906789,
                2.396465
              ],
              [
                -59.733658,
                2.091234
              ],
              [
                -59.666466,
                1.742506
              ],
              [
                -59.271736,
                1.399316
              ],
              [
                -58.893833,
                1.223371
              ],
              [
                -58.535835,
                1.262831
              ],
              [
                -58.457226,
                1.459806
              ],
              [
                -58.33369,
                1.575341
              ],
              [
                -58.147419,
                1.525498
              ],
              [
                -57.988842,
                1.576247
              ],
              [
                -57.688843,
                1.692332
              ],
              [
                -57.445988,
                1.870887
              ],
              [
                -56.972834,
                1.908215
              ],
              [
                -56.76656,
                1.878232
              ],
              [
                -56.47736721,
                1.94594242
              ],
              [
                -56.07856195,
                1.8528041
              ],
              [
                -56.0423,
                2.21131
              ],
              [
                -55.81683994,
                2.46121683
              ],
              [
                -55.28745,
                2.51486
              ],
              [
                -54.8036,
                2.44136
              ],
              [
                -54.5736663,
                2.32999002
              ],
              [
                -54.466001,
                2.210249
              ],
              [
                -54.174545,
                2.138673
              ],
              [
                -54.085738,
                2.151138
              ],
              [
                -53.888408,
                2.284415
              ],
              [
                -53.714694,
                2.311827
              ],
              [
                -53.416187,
                2.290832
              ],
              [
                -53.036952,
                2.173949
              ],
              [
                -52.886589,
                2.217141
              ],
              [
                -52.679085,
                2.36996
              ],
              [
                -52.538349,
                2.563411
              ],
              [
                -52.474071,
                2.773241
              ],
              [
                -52.240136,
                3.241432
              ],
              [
                -51.61648418,
                4.18171753
              ],
              [
                -51.54459381,
                4.39661932
              ],
              [
                -51.20151138,
                4.0838542
              ],
              [
                -51.11890411,
                3.91855907
              ],
              [
                -51.00675201,
                3.10775709
              ],
              [
                -50.67050171,
                2.18843508
              ],
              [
                -50.47079468,
                1.81999504
              ],
              [
                -50.41038513,
                1.79508102
              ],
              [
                -50.28660202,
                1.81663299
              ],
              [
                -49.95360184,
                1.67637706
              ],
              [
                -49.88027954,
                1.41903996
              ],
              [
                -49.91822052,
                1.23168504
              ],
              [
                -49.9879303,
                1.07213199
              ],
              [
                -50.24432373,
                0.88085508
              ],
              [
                -50.42894745,
                0.69005901
              ],
              [
                -50.5391922,
                0.49607104
              ],
              [
                -50.84706879,
                0.18408502
              ],
              [
                -50.98559952,
                0.11434307
              ],
              [
                -51.20264816,
                -0.05534606
              ],
              [
                -51.41934204,
                -0.41202104
              ],
              [
                -51.40940857,
                -0.43996698
              ],
              [
                -51.3599205,
                -0.48542506
              ],
              [
                -51.259758,
                -0.50003004
              ],
              [
                -51.08229828,
                -0.33643201
              ],
              [
                -51.03220367,
                -0.222819
              ],
              [
                -50.89218903,
                -0.06011201
              ],
              [
                -50.71222687,
                -1e-8
              ],
              [
                -50.66278076,
                -1e-8
              ],
              [
                -50.6140976,
                -0.09362605
              ],
              [
                -50.7571373,
                -0.40939599
              ],
              [
                -50.9724617,
                -0.616826
              ],
              [
                -50.80572128,
                -0.61690491
              ],
              [
                -50.71104813,
                -0.52716494
              ],
              [
                -50.52018356,
                -0.16668707
              ],
              [
                -50.32112885,
                -0.08827504
              ],
              [
                -50.03032303,
                -0.15095508
              ],
              [
                -48.63956451,
                -0.22543198
              ],
              [
                -48.36965942,
                -0.38095301
              ],
              [
                -48.47468567,
                -0.70018905
              ],
              [
                -48.81281281,
                -1.38220203
              ],
              [
                -49.03149414,
                -1.53825903
              ],
              [
                -49.41899109,
                -1.63300991
              ],
              [
                -49.59542084,
                -1.71637094
              ],
              [
                -50.05263519,
                -1.71746898
              ],
              [
                -50.41309357,
                -1.83979094
              ],
              [
                -50.40115738,
                -1.93450499
              ],
              [
                -49.75801849,
                -1.89271092
              ],
              [
                -49.58322906,
                -1.78113794
              ],
              [
                -49.27634811,
                -1.70643997
              ],
              [
                -49.27604675,
                -1.78742302
              ],
              [
                -49.38072205,
                -1.99304199
              ],
              [
                -49.41249084,
                -2.143399
              ],
              [
                -49.38261032,
                -2.15883207
              ],
              [
                -49.2914505,
                -2.06884885
              ],
              [
                -49.09988785,
                -1.74769199
              ],
              [
                -49.01031876,
                -1.64854288
              ],
              [
                -48.89687729,
                -1.57319093
              ],
              [
                -48.90932083,
                -1.66621602
              ],
              [
                -48.95484543,
                -1.71205497
              ],
              [
                -48.93162537,
                -1.74971306
              ],
              [
                -48.89906311,
                -1.74082506
              ],
              [
                -48.61351013,
                -1.35892606
              ],
              [
                -48.53363419,
                -1.38721693
              ],
              [
                -48.53742981,
                -1.46696687
              ],
              [
                -48.49585342,
                -1.55254805
              ],
              [
                -48.48569489,
                -1.54972696
              ],
              [
                -48.37402725,
                -1.51094103
              ],
              [
                -48.31873321,
                -1.47819495
              ],
              [
                -48.319561,
                -1.44887388
              ],
              [
                -48.40404511,
                -1.46060991
              ],
              [
                -48.49072647,
                -1.33281302
              ],
              [
                -48.46693039,
                -1.17379892
              ],
              [
                -48.32643509,
                -1.09352088
              ],
              [
                -48.31313705,
                -1.11409295
              ],
              [
                -48.27826309,
                -1.11101794
              ],
              [
                -48.30358505,
                -0.94751102
              ],
              [
                -48.05469132,
                -0.66806889
              ],
              [
                -48.01957321,
                -0.71035194
              ],
              [
                -47.90044785,
                -0.58426595
              ],
              [
                -47.7321167,
                -0.55819404
              ],
              [
                -47.66680527,
                -0.56897604
              ],
              [
                -47.50541306,
                -0.68740296
              ],
              [
                -47.4762001,
                -0.75691307
              ],
              [
                -47.40633774,
                -0.763861
              ],
              [
                -47.23616791,
                -0.69688892
              ],
              [
                -46.84598923,
                -0.79914796
              ],
              [
                -46.69607925,
                -0.88202804
              ],
              [
                -46.66175079,
                -0.93870199
              ],
              [
                -46.67639542,
                -0.96460611
              ],
              [
                -46.52502441,
                -1.02695203
              ],
              [
                -46.29208374,
                -1.03051496
              ],
              [
                -46.21319962,
                -1.09163201
              ],
              [
                -46.15048218,
                -1.23746502
              ],
              [
                -46.07294083,
                -1.20675898
              ],
              [
                -45.96645355,
                -1.13245201
              ],
              [
                -45.68111801,
                -1.40869296
              ],
              [
                -45.54970169,
                -1.41977501
              ],
              [
                -45.42805481,
                -1.468238
              ],
              [
                -45.3828125,
                -1.54983091
              ],
              [
                -45.34819794,
                -1.75019097
              ],
              [
                -45.28059006,
                -1.74709999
              ],
              [
                -45.22390747,
                -1.68947494
              ],
              [
                -45.24812317,
                -1.64453399
              ],
              [
                -45.08337784,
                -1.47117603
              ],
              [
                -44.92302704,
                -1.55032098
              ],
              [
                -44.78232574,
                -1.7456429
              ],
              [
                -44.70133591,
                -1.81772399
              ],
              [
                -44.64728928,
                -1.83612406
              ],
              [
                -44.5963974,
                -1.90093899
              ],
              [
                -44.60791397,
                -2.14731908
              ],
              [
                -44.70264053,
                -2.29058599
              ],
              [
                -44.66578674,
                -2.32891798
              ],
              [
                -44.53256226,
                -2.1577611
              ],
              [
                -44.47856522,
                -2.13730097
              ],
              [
                -44.3986702,
                -2.213732
              ],
              [
                -44.35777664,
                -2.33460403
              ],
              [
                -44.40127945,
                -2.41627693
              ],
              [
                -44.49124146,
                -2.39589596
              ],
              [
                -44.56031036,
                -2.52228999
              ],
              [
                -44.79195404,
                -3.23552895
              ],
              [
                -44.7790184,
                -3.31240606
              ],
              [
                -44.7396431,
                -3.30683708
              ],
              [
                -44.49360184,
                -3.02589993
              ],
              [
                -44.31137466,
                -2.51413512
              ],
              [
                -44.1046257,
                -2.41147399
              ],
              [
                -44.0287323,
                -2.40554905
              ],
              [
                -44.05211639,
                -2.56112695
              ],
              [
                -44.19799423,
                -2.70152903
              ],
              [
                -44.3324852,
                -2.77940989
              ],
              [
                -44.2081604,
                -2.85694313
              ],
              [
                -44.17609406,
                -2.84165907
              ],
              [
                -44.07212067,
                -2.72799492
              ],
              [
                -43.89001846,
                -2.61919904
              ],
              [
                -43.55807114,
                -2.52579307
              ],
              [
                -43.43218231,
                -2.54456997
              ],
              [
                -43.39375305,
                -2.447191
              ],
              [
                -43.48111343,
                -2.38393187
              ],
              [
                -43.43276215,
                -2.33510399
              ],
              [
                -43.19064331,
                -2.37763
              ],
              [
                -42.24919891,
                -2.79946303
              ],
              [
                -42.145401,
                -2.80283308
              ],
              [
                -42.03330994,
                -2.74502993
              ],
              [
                -41.57727814,
                -2.90943193
              ],
              [
                -41.3079071,
                -2.91739106
              ],
              [
                -40.47492981,
                -2.79730892
              ],
              [
                -39.98057175,
                -2.84894109
              ],
              [
                -39.1929512,
                -3.27830815
              ],
              [
                -38.42252731,
                -3.79464102
              ],
              [
                -38.11745453,
                -4.13954306
              ],
              [
                -37.71352387,
                -4.50554895
              ],
              [
                -37.253582,
                -4.82350302
              ],
              [
                -36.81952286,
                -5.01913691
              ],
              [
                -36.56422424,
                -5.08378601
              ],
              [
                -36.11459351,
                -5.08650589
              ],
              [
                -35.94012451,
                -5.04887819
              ],
              [
                -35.58840561,
                -5.12432289
              ],
              [
                -35.48149109,
                -5.16157389
              ],
              [
                -35.41620254,
                -5.21769905
              ],
              [
                -35.2215271,
                -5.59320116
              ],
              [
                -35.06606674,
                -6.22514582
              ],
              [
                -34.82325363,
                -7.00817823
              ],
              [
                -34.79574203,
                -7.32211399
              ],
              [
                -34.85190201,
                -8.03731346
              ],
              [
                -34.94322586,
                -8.35743809
              ],
              [
                -35.13445282,
                -8.84321117
              ],
              [
                -35.16685486,
                -8.96617985
              ],
              [
                -35.3843711,
                -9.2887809
              ],
              [
                -36.12883759,
                -10.14447212
              ],
              [
                -36.51837158,
                -10.53583717
              ],
              [
                -36.85636902,
                -10.74072266
              ],
              [
                -36.9344368,
                -10.82566357
              ],
              [
                -37.01784515,
                -10.93597603
              ],
              [
                -37.41895294,
                -11.54877567
              ],
              [
                -37.66376495,
                -12.06667233
              ],
              [
                -37.98003006,
                -12.54582024
              ],
              [
                -38.31759643,
                -12.93418121
              ],
              [
                -38.4771843,
                -13.02238846
              ],
              [
                -38.53210068,
                -13.0167017
              ],
              [
                -38.47738647,
                -12.87846947
              ],
              [
                -38.49815369,
                -12.74522495
              ],
              [
                -38.64809418,
                -12.62097931
              ],
              [
                -38.70752335,
                -12.63140106
              ],
              [
                -38.74300003,
                -12.69881344
              ],
              [
                -38.77658844,
                -12.81710529
              ],
              [
                -38.76766968,
                -12.99852467
              ],
              [
                -38.90232468,
                -13.48607159
              ],
              [
                -39.07524872,
                -13.88655853
              ],
              [
                -39.07505035,
                -13.93466377
              ],
              [
                -38.98628616,
                -13.99786758
              ],
              [
                -38.95407486,
                -13.98992062
              ],
              [
                -39.06284714,
                -14.66378975
              ],
              [
                -38.96068955,
                -15.54219437
              ],
              [
                -38.95383072,
                -15.59157753
              ],
              [
                -38.91505432,
                -15.72952747
              ],
              [
                -39.21211243,
                -17.15460777
              ],
              [
                -39.22293854,
                -17.31551361
              ],
              [
                -39.18915176,
                -17.56152153
              ],
              [
                -39.35773086,
                -17.90309143
              ],
              [
                -39.46435928,
                -17.96953392
              ],
              [
                -39.61517334,
                -18.19915199
              ],
              [
                -39.72146606,
                -18.49276733
              ],
              [
                -39.74884033,
                -18.80957985
              ],
              [
                -39.68990707,
                -19.30187225
              ],
              [
                -39.75460053,
                -19.53923607
              ],
              [
                -40.17335129,
                -20.07702637
              ],
              [
                -40.42020416,
                -20.63575363
              ],
              [
                -40.66646576,
                -20.81869125
              ],
              [
                -40.80602646,
                -20.98676682
              ],
              [
                -41.0705986,
                -21.50746155
              ],
              [
                -40.97822571,
                -21.91741562
              ],
              [
                -40.99014282,
                -22.01387787
              ],
              [
                -41.2290802,
                -22.15070152
              ],
              [
                -41.58683777,
                -22.25689888
              ],
              [
                -41.7599144,
                -22.35728455
              ],
              [
                -41.97941971,
                -22.56554413
              ],
              [
                -42.00351715,
                -22.65262604
              ],
              [
                -41.92700195,
                -22.77096748
              ],
              [
                -42.08647537,
                -22.95662117
              ],
              [
                -43.09642792,
                -22.96092033
              ],
              [
                -43.1221199,
                -22.9080925
              ],
              [
                -43.02939224,
                -22.72959328
              ],
              [
                -43.03194046,
                -22.69289017
              ],
              [
                -43.08371353,
                -22.67971993
              ],
              [
                -43.21383285,
                -22.72923851
              ],
              [
                -43.28720474,
                -22.80633354
              ],
              [
                -43.25694275,
                -22.83140755
              ],
              [
                -43.18834686,
                -22.82689095
              ],
              [
                -43.14999008,
                -22.95141792
              ],
              [
                -43.20168304,
                -22.99029922
              ],
              [
                -43.57376099,
                -23.06293678
              ],
              [
                -43.92972946,
                -23.08636093
              ],
              [
                -43.87681198,
                -23.0525074
              ],
              [
                -43.56185176,
                -23.05202113
              ],
              [
                -43.83372116,
                -22.91220283
              ],
              [
                -44.0727005,
                -22.97352791
              ],
              [
                -44.30348969,
                -22.95675087
              ],
              [
                -44.33568954,
                -22.92578125
              ],
              [
                -44.67210007,
                -23.06544304
              ],
              [
                -44.70513535,
                -23.23398781
              ],
              [
                -44.5594902,
                -23.23739433
              ],
              [
                -44.52138901,
                -23.29595566
              ],
              [
                -44.55715942,
                -23.33444977
              ],
              [
                -44.73470306,
                -23.3724575
              ],
              [
                -44.87862396,
                -23.35030556
              ],
              [
                -45.6916275,
                -23.77373123
              ],
              [
                -45.93429184,
                -23.77108955
              ],
              [
                -46.12735367,
                -23.85159493
              ],
              [
                -46.48694229,
                -24.03569412
              ],
              [
                -47.55044937,
                -24.75244713
              ],
              [
                -47.90296173,
                -25.11414528
              ],
              [
                -48.18622208,
                -25.31612015
              ],
              [
                -48.41275787,
                -25.23464966
              ],
              [
                -48.45170212,
                -25.34680176
              ],
              [
                -48.7388649,
                -25.37392807
              ],
              [
                -48.69092178,
                -25.49925232
              ],
              [
                -48.59119797,
                -25.52459717
              ],
              [
                -48.43230057,
                -25.65330887
              ],
              [
                -48.61365127,
                -26.06044769
              ],
              [
                -48.77048874,
                -26.21020126
              ],
              [
                -48.77458954,
                -26.29615974
              ],
              [
                -48.66362042,
                -26.3634034
              ],
              [
                -48.6922226,
                -26.68179321
              ],
              [
                -48.53124619,
                -27.18000984
              ],
              [
                -48.6037941,
                -27.4295311
              ],
              [
                -48.61679459,
                -27.8250885
              ],
              [
                -48.5964508,
                -27.91472816
              ],
              [
                -48.76536942,
                -28.48431778
              ],
              [
                -48.85609436,
                -28.6134243
              ],
              [
                -49.09280777,
                -28.74092483
              ],
              [
                -49.35607529,
                -28.93819618
              ],
              [
                -49.57704926,
                -29.1594429
              ],
              [
                -49.82983398,
                -29.4736023
              ],
              [
                -50.07461986,
                -29.88339022
              ],
              [
                -50.31626129,
                -30.47177315
              ],
              [
                -50.7180481,
                -31.04144669
              ],
              [
                -50.90100098,
                -31.254982
              ],
              [
                -51.30316925,
                -31.61315727
              ],
              [
                -52.04257584,
                -32.11992645
              ],
              [
                -52.0770607,
                -31.87484741
              ],
              [
                -51.91985321,
                -31.86066437
              ],
              [
                -51.70234299,
                -31.78045464
              ],
              [
                -51.37911224,
                -31.52540207
              ],
              [
                -51.15714264,
                -31.28983688
              ],
              [
                -50.5692482,
                -30.47147369
              ],
              [
                -50.53446579,
                -30.27840042
              ],
              [
                -50.60220306,
                -30.19423005
              ],
              [
                -50.65924454,
                -30.20137787
              ],
              [
                -50.86021424,
                -30.32245255
              ],
              [
                -51.04547562,
                -30.36219316
              ],
              [
                -51.14970398,
                -30.24690247
              ],
              [
                -51.28751373,
                -30.30248833
              ],
              [
                -51.29929733,
                -30.58159447
              ],
              [
                -51.46807861,
                -31.05490303
              ],
              [
                -51.72380447,
                -31.27757836
              ],
              [
                -52.0019755,
                -31.4477323
              ],
              [
                -52.13710022,
                -31.69519806
              ],
              [
                -52.26033401,
                -32.06208038
              ],
              [
                -52.16049957,
                -32.20075607
              ],
              [
                -52.6341629,
                -33.12595367
              ],
              [
                -52.77326584,
                -33.29032135
              ],
              [
                -53.36929169,
                -33.74445407
              ],
              [
                -53.423309,
                -33.742984
              ],
              [
                -53.530858,
                -33.682083
              ],
              [
                -53.52023522,
                -33.15118431
              ],
              [
                -53.45560279,
                -33.06107734
              ],
              [
                -53.2113756,
                -32.8525883
              ],
              [
                -53.31122473,
                -32.59971566
              ],
              [
                -54.051646,
                -31.904609
              ],
              [
                -54.495748,
                -31.542871
              ],
              [
                -55.057461,
                -31.331891
              ],
              [
                -55.344496,
                -31.078585
              ],
              [
                -55.673394,
                -30.956089
              ],
              [
                -55.999347,
                -30.877861
              ],
              [
                -56.176198,
                -30.634071
              ],
              [
                -56.782536,
                -30.125723
              ],
              [
                -56.88922,
                -30.089414
              ],
              [
                -57.063227,
                -30.090053
              ],
              [
                -57.130877,
                -30.145834
              ],
              [
                -57.165477,
                -30.222431
              ],
              [
                -57.253395,
                -30.28652
              ],
              [
                -57.419277,
                -30.284785
              ],
              [
                -57.64734925,
                -30.19452799
              ],
              [
                -56.98427403,
                -29.6442983
              ],
              [
                -56.71742627,
                -29.3678202
              ],
              [
                -56.64966374,
                -29.25033014
              ],
              [
                -56.29849254,
                -28.83475613
              ],
              [
                -55.74911258,
                -28.28116318
              ],
              [
                -54.75223622,
                -27.57171638
              ],
              [
                -54.21386857,
                -27.36906957
              ],
              [
                -53.81464798,
                -27.12904567
              ],
              [
                -53.67872134,
                -26.91484611
              ],
              [
                -53.67713472,
                -26.42032302
              ],
              [
                -53.86184291,
                -25.66198739
              ],
              [
                -53.8914464,
                -25.62771472
              ],
              [
                -54.18675972,
                -25.53465896
              ],
              [
                -54.40843275,
                -25.64484021
              ],
              [
                -54.59409983,
                -25.59227331
              ],
              [
                -54.60148997,
                -25.4910945
              ],
              [
                -54.45776512,
                -25.10419853
              ],
              [
                -54.27697221,
                -24.39453709
              ],
              [
                -54.284086,
                -24.067595
              ],
              [
                -54.456377,
                -23.899465
              ],
              [
                -54.65909,
                -23.819406
              ],
              [
                -55.052207,
                -23.985396
              ],
              [
                -55.242191,
                -24.004632
              ],
              [
                -55.401844,
                -23.970476
              ],
              [
                -55.50423113,
                -23.63546562
              ],
              [
                -55.650636,
                -22.793331
              ],
              [
                -55.641368,
                -22.612706
              ],
              [
                -55.858343,
                -22.282239
              ],
              [
                -56.551516,
                -22.186081
              ],
              [
                -56.638865,
                -22.251911
              ],
              [
                -56.8779449,
                -22.26911452
              ],
              [
                -57.318107,
                -22.237621
              ],
              [
                -57.907057,
                -22.125574
              ],
              [
                -57.985554,
                -22.078319
              ],
              [
                -57.9983566,
                -22.02726256
              ],
              [
                -57.86278162,
                -21.31493277
              ],
              [
                -57.8571991,
                -21.02957486
              ],
              [
                -57.90378623,
                -20.7465744
              ],
              [
                -58.168511,
                -20.172243
              ],
              [
                -57.99394105,
                -20.05731612
              ],
              [
                -57.97552495,
                -19.88001533
              ],
              [
                -58.131153,
                -19.758446
              ],
              [
                -57.84990073,
                -19.17463052
              ],
              [
                -57.56554235,
                -18.25835647
              ],
              [
                -57.581836,
                -18.108279
              ],
              [
                -57.78427846,
                -17.58556261
              ],
              [
                -57.89783764,
                -17.45877946
              ],
              [
                -58.076425,
                -17.45628
              ],
              [
                -58.24645,
                -17.354892
              ],
              [
                -58.383949,
                -17.192184
              ],
              [
                -58.456171,
                -16.969391
              ],
              [
                -58.471976,
                -16.791442
              ],
              [
                -58.408921,
                -16.31041
              ],
              [
                -60.05955998,
                -16.26882137
              ],
              [
                -60.19996332,
                -15.9497634
              ],
              [
                -60.41001978,
                -15.09751909
              ],
              [
                -60.245063,
                -15.097173
              ],
              [
                -60.27112807,
                -14.63828792
              ],
              [
                -60.46215,
                -14.280603
              ],
              [
                -60.47888897,
                -14.11326654
              ],
              [
                -60.39771,
                -13.977565
              ],
              [
                -60.49434706,
                -13.79244154
              ],
              [
                -60.92275955,
                -13.56298201
              ],
              [
                -61.24379,
                -13.512812
              ],
              [
                -61.87580083,
                -13.50801172
              ],
              [
                -62.115209,
                -13.163681
              ],
              [
                -62.513769,
                -13.075819
              ],
              [
                -62.808902,
                -12.962137
              ],
              [
                -63.040132,
                -12.757607
              ],
              [
                -63.691548,
                -12.449421
              ],
              [
                -63.78100759,
                -12.43222005
              ],
              [
                -63.86551392,
                -12.45151855
              ],
              [
                -63.897801,
                -12.499692
              ],
              [
                -63.96666,
                -12.527624
              ],
              [
                -64.400918,
                -12.449021
              ],
              [
                -64.813217,
                -12.070335
              ],
              [
                -64.93826457,
                -12.00521573
              ],
              [
                -65.23369549,
                -11.67580942
              ],
              [
                -65.35951233,
                -11.25719449
              ],
              [
                -65.314634,
                -11.100408
              ],
              [
                -65.30962107,
                -10.83482629
              ],
              [
                -65.38709681,
                -10.38794737
              ],
              [
                -65.30766804,
                -10.09243053
              ],
              [
                -65.292963,
                -9.833299
              ],
              [
                -65.378304,
                -9.697125
              ],
              [
                -65.43728155,
                -9.67200155
              ],
              [
                -65.718885,
                -9.755953
              ],
              [
                -66.195056,
                -9.806309
              ],
              [
                -66.60911,
                -9.895181
              ],
              [
                -66.964066,
                -10.188637
              ],
              [
                -67.5378,
                -10.48845
              ],
              [
                -68.104835,
                -10.740563
              ],
              [
                -68.240697,
                -10.958609
              ],
              [
                -68.544445,
                -11.106778
              ],
              [
                -68.70702644,
                -11.14594306
              ],
              [
                -68.756246,
                -11.037549
              ],
              [
                -68.860178,
                -11.004645
              ],
              [
                -69.236245,
                -10.947196
              ],
              [
                -69.57292,
                -10.946172
              ],
              [
                -69.758566,
                -10.941972
              ],
              [
                -70.157726,
                -11.038824
              ],
              [
                -70.620864,
                -10.999892
              ],
              [
                -70.620918,
                -9.827967
              ],
              [
                -70.516402,
                -9.480359
              ],
              [
                -70.619509,
                -9.472554
              ],
              [
                -71.223781,
                -9.969421
              ],
              [
                -71.3841365,
                -10.00013709
              ],
              [
                -72.105093,
                -10.00030358
              ],
              [
                -72.175768,
                -9.984608
              ],
              [
                -72.19325,
                -9.777287
              ],
              [
                -72.30127,
                -9.533117
              ],
              [
                -72.411909,
                -9.481465
              ],
              [
                -72.9224805,
                -9.41163285
              ],
              [
                -73.10619,
                -9.293832
              ],
              [
                -72.94805,
                -9.124481
              ],
              [
                -72.961295,
                -8.982028
              ],
              [
                -73.502794,
                -8.375933
              ],
              [
                -73.734185,
                -7.878179
              ],
              [
                -73.87237,
                -7.667542
              ],
              [
                -73.847837,
                -7.352935
              ],
              [
                -73.760889,
                -6.936443
              ],
              [
                -73.716641,
                -6.86457
              ],
              [
                -73.632429,
                -6.752778
              ],
              [
                -73.540494,
                -6.689181
              ],
              [
                -73.369959,
                -6.609679
              ],
              [
                -73.243966,
                -6.586837
              ],
              [
                -73.132633,
                -6.497887
              ],
              [
                -73.106839,
                -6.420485
              ],
              [
                -73.183203,
                -6.259513
              ],
              [
                -73.148852,
                -5.868346
              ],
              [
                -72.958871,
                -5.577287
              ],
              [
                -72.878359,
                -5.179238
              ],
              [
                -72.849457,
                -5.139584
              ],
              [
                -72.506749,
                -4.943103
              ],
              [
                -71.925164,
                -4.54925
              ],
              [
                -71.162609,
                -4.391761
              ],
              [
                -70.856492,
                -4.279225
              ],
              [
                -70.66444,
                -4.167389
              ],
              [
                -70.438838,
                -4.145859
              ],
              [
                -70.280904,
                -4.215725
              ],
              [
                -70.168616,
                -4.310852
              ],
              [
                -70.025037,
                -4.365642
              ],
              [
                -69.951703,
                -4.311101
              ],
              [
                -69.947326,
                -4.22711
              ],
              [
                -69.40755122,
                -1.30077238
              ],
              [
                -69.42822328,
                -1.01522405
              ],
              [
                -69.57767062,
                -0.6657471
              ],
              [
                -69.92809245,
                -0.31514369
              ],
              [
                -70.04913636,
                -0.1367963
              ],
              [
                -70.02595312,
                0.56105893
              ],
              [
                -69.42231938,
                0.69087508
              ],
              [
                -69.29268634,
                0.61016376
              ],
              [
                -69.12891069,
                0.63797173
              ],
              [
                -69.18297204,
                0.93626096
              ],
              [
                -69.2461811,
                1.04853979
              ],
              [
                -69.32803456,
                1.08575456
              ],
              [
                -69.84618665,
                1.07852339
              ],
              [
                -69.84522089,
                1.71351299
              ],
              [
                -69.59749414,
                1.74876777
              ],
              [
                -68.20894023,
                1.72866623
              ],
              [
                -67.6827439,
                1.95389344
              ],
              [
                -67.58123608,
                2.06215891
              ],
              [
                -67.40744026,
                2.1442979
              ],
              [
                -67.35090426,
                2.11945633
              ],
              [
                -67.10805647,
                1.71028423
              ],
              [
                -67.06533723,
                1.51459736
              ],
              [
                -67.09830069,
                1.29216535
              ],
              [
                -67.08659374,
                1.16729123
              ],
              [
                -66.85291628,
                1.22955673
              ],
              [
                -66.34743919,
                0.77846808
              ],
              [
                -65.942104,
                0.877008
              ],
              [
                -65.73742,
                1.000497
              ],
              [
                -65.615121,
                1.009839
              ],
              [
                -65.518348,
                0.922162
              ],
              [
                -65.505972,
                0.835161
              ],
              [
                -65.397505,
                0.79068
              ],
              [
                -64.911029,
                1.233136
              ],
              [
                -64.484244,
                1.458567
              ],
              [
                -64.382977,
                1.443305
              ],
              [
                -64.061644,
                1.70315
              ],
              [
                -63.906356,
                1.986274
              ],
              [
                -63.686425,
                2.030915
              ],
              [
                -63.392534,
                2.152906
              ],
              [
                -63.36316,
                2.265726
              ],
              [
                -63.371598,
                2.427015
              ],
              [
                -63.896204,
                2.467184
              ],
              [
                -64.036118,
                2.579012
              ],
              [
                -64.105366,
                2.968194
              ],
              [
                -64.139634,
                3.486325
              ],
              [
                -64.196751,
                3.593945
              ],
              [
                -64.316444,
                3.712208
              ],
              [
                -64.76907874,
                4.07806828
              ],
              [
                -64.825545,
                4.205494
              ],
              [
                -64.79406308,
                4.28460549
              ],
              [
                -63.777046,
                3.936506
              ],
              [
                -63.416763,
                3.930445
              ],
              [
                -63.172633,
                3.808478
              ],
              [
                -62.928386,
                3.637068
              ],
              [
                -62.761018,
                3.68179
              ],
              [
                -62.736278,
                4.039052
              ],
              [
                -62.354,
                4.163612
              ],
              [
                -62.112547,
                4.09645
              ],
              [
                -61.645462,
                4.254809
              ],
              [
                -61.512843,
                4.32396
              ],
              [
                -61.435567,
                4.432198
              ],
              [
                -61.323011,
                4.504736
              ],
              [
                -60.95430394,
                4.56142541
              ],
              [
                -60.59087308,
                4.9347123
              ],
              [
                -60.67541454,
                5.18621974
              ],
              [
                -60.73638932,
                5.20138956
              ],
              [
                -60.67513293,
                5.23174193
              ],
              [
                -60.20594292,
                5.27025654
              ],
              [
                -59.99418146,
                5.08482079
              ],
              [
                -59.978271,
                5.0361
              ],
              [
                -60.024161,
                4.748202
              ],
              [
                -60.074165,
                4.638237
              ],
              [
                -59.972859,
                4.493206
              ],
              [
                -59.703055,
                4.317049
              ]
            ]
          ],
          [
            [
              [
                -49.42239761,
                -0.11111606
              ],
              [
                -49.48693466,
                -0.13550505
              ],
              [
                -49.7027626,
                -0.13548896
              ],
              [
                -49.83109665,
                -0.09958507
              ],
              [
                -49.75021362,
                -1e-8
              ],
              [
                -49.60865784,
                0.080048
              ],
              [
                -49.54957199,
                0.08176696
              ],
              [
                -49.38882446,
                0.04520493
              ],
              [
                -49.33864593,
                -1e-8
              ],
              [
                -49.34237671,
                -0.03017101
              ],
              [
                -49.42239761,
                -0.11111606
              ]
            ]
          ],
          [
            [
              [
                -49.82922745,
                0.06297205
              ],
              [
                -50.00992203,
                -0.02793002
              ],
              [
                -50.01902008,
                -1e-8
              ],
              [
                -50.04490662,
                0.01710896
              ],
              [
                -50.08631516,
                0.03433092
              ],
              [
                -50.2095871,
                0.04548908
              ],
              [
                -50.23948669,
                0.23006195
              ],
              [
                -49.66038895,
                0.35791197
              ],
              [
                -49.60856628,
                0.31149501
              ],
              [
                -49.60578919,
                0.26767406
              ],
              [
                -49.82922745,
                0.06297205
              ]
            ]
          ],
          [
            [
              [
                -50.30405045,
                0.282446
              ],
              [
                -50.4504776,
                0.17498295
              ],
              [
                -50.53516388,
                0.22468497
              ],
              [
                -50.42118073,
                0.488065
              ],
              [
                -50.32634354,
                0.49661404
              ],
              [
                -50.30405045,
                0.282446
              ]
            ]
          ],
          [
            [
              [
                -50.24425125,
                0.34394503
              ],
              [
                -50.29104233,
                0.34112302
              ],
              [
                -50.30274582,
                0.49285895
              ],
              [
                -50.27078628,
                0.59927595
              ],
              [
                -50.04287338,
                0.58294594
              ],
              [
                -50.044487,
                0.525922
              ],
              [
                -50.13536835,
                0.42251801
              ],
              [
                -50.24425125,
                0.34394503
              ]
            ]
          ],
          [
            [
              [
                -50.27636337,
                1.93851602
              ],
              [
                -50.42327118,
                1.84911299
              ],
              [
                -50.52114868,
                2.02619386
              ],
              [
                -50.49594879,
                2.13213897
              ],
              [
                -50.37535858,
                2.19055796
              ],
              [
                -50.33879852,
                2.15262699
              ],
              [
                -50.27636337,
                1.93851602
              ]
            ]
          ]
        ]
      }
    }
  ]
}
