{
  "type": "FeatureCollection",
  "features": [
    {
      "type": "Feature",
      "properties": {
        "iso3": "CMR",
        "name": "Cameroon",
        "layer": "boundary",
        "geometry_quality": "authoritative",
        "geometry_source": "data/source/geo/countries_manifest.json + data/source/geo/countries_topojson/*.topo.json"
      },
      "geometry": {
        "type": "Polygon",
        "coordinates": [
          [
            [
              15.571888,
              10.069709
            ],
            [
              15.38207979,
              9.95550544
            ],
            [
              14.239495,
              10.006446
            ],
            [
              13.998845,
              9.627834
            ],
            [
              14.486695,
              9.069286
            ],
            [
              15.05449,
              8.681186
            ],
            [
              15.588139,
              7.757357
            ],
            [
              15.568042,
              7.601354
            ],
            [
              15.4957888,
              7.53234171
            ],
            [
              15.179149,
              7.073042
            ],
            [
              15.035184,
              6.762429
            ],
            [
              14.80512879,
              6.38706264
            ],
            [
              14.5870586,
              6.19573994
            ],
            [
              14.588325,
              5.409472
            ],
            [
              14.730825,
              4.62061
            ],
            [
              15.090123,
              4.289638
            ],
            [
              15.155957,
              4.073183
            ],
            [
              15.073453,
              4.019521
            ],
            [
              15.25833495,
              3.70233547
            ],
            [
              16.08646,
              2.824947
            ],
            [
              16.078002,
              2.471181
            ],
            [
              16.19179703,
              2.2203349
            ],
            [
              16.155099,
              2.18332
            ],
            [
              16.096634,
              1.888601
            ],
            [
              15.921244,
              1.780138
            ],
            [
              15.780148,
              1.892448
            ],
            [
              15.488495,
              1.982977
            ],
            [
              15.110743,
              1.99298
            ],
            [
              14.2666665,
              2.17222209
            ],
            [
              13.297022,
              2.172197
            ],
            [
              13.280193,
              2.251182
            ],
            [
              13.189473,
              2.283624
            ],
            [
              12.649886,
              2.24232
            ],
            [
              11.652359,
              2.314376
            ],
            [
              11.398037,
              2.299381
            ],
            [
              11.3333,
              2.172222
            ],
            [
              10.00775371,
              2.17222212
            ],
            [
              9.851946,
              2.24403707
            ],
            [
              9.82258805,
              2.34893793
            ],
            [
              9.8232707,
              2.5619748
            ],
            [
              9.9271034,
              2.9955716
            ],
            [
              9.7318729,
              3.4795482
            ],
            [
              9.6571315,
              3.8473204
            ],
            [
              9.4906694,
              3.9738044
            ],
            [
              9.2111086,
              3.9843617
            ],
            [
              8.9825431,
              4.0962799
            ],
            [
              8.8355317,
              4.6019725
            ],
            [
              8.7259744,
              4.5648095
            ],
            [
              8.7054308,
              4.5390864
            ],
            [
              8.7257623,
              4.5028635
            ],
            [
              8.6949603,
              4.4845958
            ],
            [
              8.5164351,
              4.4983278
            ],
            [
              8.4989528,
              4.615601
            ],
            [
              8.52694906,
              4.73486123
            ],
            [
              8.77270507,
              5.10868476
            ],
            [
              8.87004655,
              5.4828259
            ],
            [
              8.85441202,
              5.71065092
            ],
            [
              8.95405269,
              5.92384679
            ],
            [
              9.58477714,
              6.48369263
            ],
            [
              9.76194846,
              6.69237391
            ],
            [
              9.99544037,
              6.89900624
            ],
            [
              10.55985274,
              7.03874504
            ],
            [
              10.60307069,
              7.09391502
            ],
            [
              10.83364906,
              6.90839162
            ],
            [
              11.09830125,
              6.51998349
            ],
            [
              11.3184839,
              6.50489886
            ],
            [
              11.49741393,
              6.6021474
            ],
            [
              11.5478289,
              6.66258826
            ],
            [
              11.92781459,
              7.42967839
            ],
            [
              12.3023016,
              8.44074799
            ],
            [
              12.46720212,
              8.62528223
            ],
            [
              12.50306294,
              8.64194956
            ],
            [
              12.60871369,
              8.60669665
            ],
            [
              12.75870158,
              8.75953637
            ],
            [
              12.8875,
              9.07194444
            ],
            [
              12.91553625,
              9.27290865
            ],
            [
              13.14960594,
              9.53783264
            ],
            [
              13.53101462,
              10.39316731
            ],
            [
              13.59429039,
              10.6923863
            ],
            [
              13.75989411,
              11.00196596
            ],
            [
              13.96291659,
              11.25249973
            ],
            [
              14.11191045,
              11.26417467
            ],
            [
              14.31819101,
              11.32621824
            ],
            [
              14.56720312,
              11.47952591
            ],
            [
              14.65597068,
              12.13156356
            ],
            [
              14.63488973,
              12.19386315
            ],
            [
              14.50927088,
              12.32939328
            ],
            [
              14.4103104,
              12.36458332
            ],
            [
              14.20333273,
              12.53805706
            ],
            [
              14.083333,
              13.083333
            ],
            [
              14.466666,
              13.083333
            ],
            [
              14.84864,
              12.572028
            ],
            [
              15.077403,
              11.857505
            ],
            [
              15.106985,
              11.498315
            ],
            [
              15.060794,
              11.411706
            ],
            [
              15.057234,
              11.275578
            ],
            [
              15.077061,
              10.854001
            ],
            [
              15.106871,
              10.738509
            ],
            [
              15.19347702,
              10.50651206
            ],
            [
              15.489353,
              10.125864
            ],
            [
              15.571888,
              10.069709
            ]
          ]
        ]
      }
    }
  ]
}
