{
  "type": "FeatureCollection",
  "features": [
    {
      "type": "Feature",
      "properties": {
        "iso3": "COD",
        "name": "Democratic Republic of the Congo",
        "layer": "boundary",
        "geometry_quality": "authoritative",
        "geometry_source": "geo/countries_manifest.json + geo/countries_topojson/*.topo.json"
      },
      "geometry": {
        "type": "Polygon",
        "coordinates": [
          [
            [
              26.31763684,
              5.15043485
            ],
            [
              26.52695759,
              5.05733679
            ],
            [
              26.88900615,
              5.08822076
            ],
            [
              26.93408935,
              5.14212458
            ],
            [
              27.09411745,
              5.20894121
            ],
            [
              27.42580427,
              5.08290038
            ],
            [
              27.443611,
              5.019444
            ],
            [
              27.69483147,
              4.8561053
            ],
            [
              27.8775426,
              4.54851082
            ],
            [
              28.1522245,
              4.38651112
            ],
            [
              28.37092414,
              4.29905169
            ],
            [
              28.48734866,
              4.32365925
            ],
            [
              28.69789708,
              4.48576154
            ],
            [
              28.80986147,
              4.50975391
            ],
            [
              29.03932695,
              4.47837927
            ],
            [
              29.17051602,
              4.37610412
            ],
            [
              29.46980545,
              4.60956833
            ],
            [
              29.5116896,
              4.67790559
            ],
            [
              29.65540916,
              4.64154042
            ],
            [
              29.77906807,
              4.57175788
            ],
            [
              29.86743636,
              4.33893845
            ],
            [
              30.24260107,
              3.94524706
            ],
            [
              30.75293182,
              3.65464126
            ],
            [
              30.86297567,
              3.4861987
            ],
            [
              30.93660513,
              3.50646716
            ],
            [
              30.94235082,
              3.48015596
            ],
            [
              30.80104187,
              3.0057926
            ],
            [
              30.79358963,
              2.64827953
            ],
            [
              30.84224084,
              2.4006656
            ],
            [
              31.07320737,
              2.34215928
            ],
            [
              31.31461,
              2.147683
            ],
            [
              31.314612,
              2.116668
            ],
            [
              30.57144072,
              1.287063
            ],
            [
              30.29558308,
              1.16931058
            ],
            [
              29.96688932,
              0.68297402
            ],
            [
              29.71935449,
              0.03059941
            ],
            [
              29.58958298,
              -1.38835026
            ],
            [
              29.3617196,
              -1.50595425
            ],
            [
              29.14111167,
              -1.8197225
            ],
            [
              29.12388917,
              -1.91138917
            ],
            [
              29.14583306,
              -2.0072225
            ],
            [
              28.86833361,
              -2.39444444
            ],
            [
              28.89984831,
              -2.66200164
            ],
            [
              29.04064145,
              -2.74384422
            ],
            [
              29.13230907,
              -2.93479858
            ],
            [
              29.21525498,
              -3.3608215
            ],
            [
              29.275828,
              -3.935088
            ],
            [
              29.39320348,
              -4.268084
            ],
            [
              29.42333401,
              -4.44750063
            ],
            [
              29.36527552,
              -4.71569522
            ],
            [
              29.56999994,
              -5.8519453
            ],
            [
              29.50472026,
              -5.94583422
            ],
            [
              29.49499904,
              -6.00888957
            ],
            [
              29.5502785,
              -6.29527854
            ],
            [
              29.73916423,
              -6.63458466
            ],
            [
              30.06485425,
              -6.84576741
            ],
            [
              30.18833185,
              -6.96250056
            ],
            [
              30.31499756,
              -7.14375025
            ],
            [
              30.66888782,
              -7.91500123
            ],
            [
              30.79507691,
              -8.27675891
            ],
            [
              29.56835162,
              -8.3782726
            ],
            [
              28.89079475,
              -8.47670453
            ],
            [
              28.96022161,
              -8.62162405
            ],
            [
              28.93642903,
              -8.72405531
            ],
            [
              28.75115805,
              -8.97440526
            ],
            [
              28.52655907,
              -9.16609169
            ],
            [
              28.64276004,
              -10.01569653
            ],
            [
              28.65278868,
              -10.53452623
            ],
            [
              28.60786758,
              -10.74577007
            ],
            [
              28.48502477,
              -11.09003058
            ],
            [
              28.38529455,
              -11.54519045
            ],
            [
              28.4409115,
              -11.79569277
            ],
            [
              28.54030896,
              -11.89446243
            ],
            [
              28.65059213,
              -11.95115854
            ],
            [
              29.02173813,
              -12.34147004
            ],
            [
              29.14980558,
              -12.38065081
            ],
            [
              29.49842764,
              -12.40146021
            ],
            [
              29.45973346,
              -12.32489138
            ],
            [
              29.4824556,
              -12.24960089
            ],
            [
              29.55962036,
              -12.19423779
            ],
            [
              29.81470366,
              -12.14930104
            ],
            [
              29.79932259,
              -13.4448393
            ],
            [
              29.65110581,
              -13.43801982
            ],
            [
              29.60763774,
              -13.37200969
            ],
            [
              29.38203794,
              -13.32997629
            ],
            [
              29.21823794,
              -13.41657629
            ],
            [
              29.00710505,
              -13.4230817
            ],
            [
              28.78831428,
              -12.95852361
            ],
            [
              28.27166156,
              -12.41794569
            ],
            [
              27.95664606,
              -12.32213721
            ],
            [
              27.62828573,
              -12.27085027
            ],
            [
              27.51302806,
              -12.12806207
            ],
            [
              27.22514572,
              -11.63084303
            ],
            [
              27.01934614,
              -11.7444147
            ],
            [
              26.96593542,
              -11.89431144
            ],
            [
              26.86968913,
              -11.98089891
            ],
            [
              26.65254454,
              -11.98926984
            ],
            [
              25.99523433,
              -11.91989251
            ],
            [
              25.4994095,
              -11.75049428
            ],
            [
              25.32843794,
              -11.60847629
            ],
            [
              25.29440087,
              -11.35726011
            ],
            [
              25.33477659,
              -11.23791153
            ],
            [
              25.01413961,
              -11.24892683
            ],
            [
              24.34150693,
              -11.36728185
            ],
            [
              24.40435858,
              -11.24907296
            ],
            [
              24.3911583,
              -11.10114531
            ],
            [
              24.13250346,
              -10.92477314
            ],
            [
              23.99924675,
              -10.8902373
            ],
            [
              23.82291997,
              -11.02891009
            ],
            [
              23.67208,
              -11.00818
            ],
            [
              23.11437529,
              -11.11203025
            ],
            [
              22.78709,
              -11.11317
            ],
            [
              22.29969,
              -11.24397
            ],
            [
              22.26278761,
              -11.20098505
            ],
            [
              22.16967024,
              -10.87787309
            ],
            [
              22.32368185,
              -10.70998765
            ],
            [
              22.31985816,
              -10.40627723
            ],
            [
              22.21188437,
              -10.05231257
            ],
            [
              22.12234616,
              -9.87836071
            ],
            [
              21.89730321,
              -9.66054582
            ],
            [
              21.79251562,
              -9.40389483
            ],
            [
              21.94937848,
              -8.44513558
            ],
            [
              21.81911835,
              -8.06738834
            ],
            [
              21.84118132,
              -7.62217557
            ],
            [
              21.76302202,
              -7.28252594
            ],
            [
              20.55585108,
              -7.28248104
            ],
            [
              20.57581788,
              -7.10073911
            ],
            [
              20.30780827,
              -6.96828489
            ],
            [
              19.57514715,
              -7.00001117
            ],
            [
              19.50910398,
              -7.15248571
            ],
            [
              19.38160578,
              -7.99920028
            ],
            [
              18.53242801,
              -7.97533508
            ],
            [
              18.26896486,
              -7.99923411
            ],
            [
              18.09934377,
              -8.07928916
            ],
            [
              17.627408,
              -8.12724361
            ],
            [
              17.51709104,
              -8.0466889
            ],
            [
              16.93401946,
              -7.11002884
            ],
            [
              16.75553273,
              -6.65611424
            ],
            [
              16.70892316,
              -6.43719307
            ],
            [
              16.69547321,
              -6.11583236
            ],
            [
              16.58880413,
              -5.94352076
            ],
            [
              16.46318752,
              -5.85013603
            ],
            [
              14.72777693,
              -5.87962298
            ],
            [
              13.84022338,
              -5.85275752
            ],
            [
              13.10109868,
              -5.89016308
            ],
            [
              13.09328136,
              -5.86493609
            ],
            [
              13.02021336,
              -5.85871753
            ],
            [
              12.40665054,
              -5.98745012
            ],
            [
              12.19565675,
              -5.76369272
            ],
            [
              12.4918787,
              -5.7376411
            ],
            [
              12.53329542,
              -5.14948508
            ],
            [
              12.61783446,
              -4.9993711
            ],
            [
              12.85020128,
              -4.76142223
            ],
            [
              13.10175845,
              -4.68505245
            ],
            [
              13.19772704,
              -4.66010122
            ],
            [
              13.41390661,
              -4.87115511
            ],
            [
              13.60936902,
              -4.79252735
            ],
            [
              13.70470078,
              -4.70874713
            ],
            [
              13.72487516,
              -4.49279689
            ],
            [
              14.40760299,
              -4.30361664
            ],
            [
              14.47628027,
              -4.44241855
            ],
            [
              14.41875969,
              -4.51350402
            ],
            [
              14.39885077,
              -4.8601934
            ],
            [
              14.42353866,
              -4.88881032
            ],
            [
              14.68757501,
              -4.9128817
            ],
            [
              14.8082529,
              -4.83713707
            ],
            [
              15.1467501,
              -4.4145505
            ],
            [
              15.73623727,
              -3.98659808
            ],
            [
              15.95792059,
              -3.79432396
            ],
            [
              16.15508441,
              -3.43354041
            ],
            [
              16.21039664,
              -2.52574947
            ],
            [
              16.18116179,
              -2.40505791
            ],
            [
              16.18828334,
              -2.18632483
            ],
            [
              16.59804349,
              -1.69808694
            ],
            [
              16.7229705,
              -1.43923377
            ],
            [
              16.84780773,
              -1.25452493
            ],
            [
              17.00936344,
              -1.12679841
            ],
            [
              17.41238875,
              -0.8899399
            ],
            [
              17.664942,
              -0.64901367
            ],
            [
              17.70443346,
              -0.57980959
            ],
            [
              17.69921158,
              -0.12737028
            ],
            [
              17.82116991,
              0.23245792
            ],
            [
              17.87202372,
              0.58401149
            ],
            [
              17.84203356,
              0.97064408
            ],
            [
              17.94296802,
              1.2690022
            ],
            [
              18.07001517,
              1.53076845
            ],
            [
              18.0557735,
              1.84196101
            ],
            [
              18.05551745,
              1.86595976
            ],
            [
              18.06190605,
              1.8905499
            ],
            [
              18.05912953,
              2.05700267
            ],
            [
              18.09246771,
              2.2505775
            ],
            [
              18.09457419,
              2.27188607
            ],
            [
              18.09906309,
              2.27794952
            ],
            [
              18.17313299,
              2.35946099
            ],
            [
              18.20154717,
              2.40667885
            ],
            [
              18.34457779,
              2.62757881
            ],
            [
              18.63024157,
              3.18918369
            ],
            [
              18.62508317,
              3.47164695
            ],
            [
              18.58939226,
              3.75902739
            ],
            [
              18.60156412,
              4.21645905
            ],
            [
              18.63711178,
              4.36102819
            ],
            [
              19.06118772,
              4.86231149
            ],
            [
              19.36790765,
              5.09195641
            ],
            [
              19.52641531,
              5.14459569
            ],
            [
              19.70302831,
              5.13629339
            ],
            [
              19.83042132,
              5.09340815
            ],
            [
              20.32440932,
              4.76748138
            ],
            [
              20.4396388,
              4.64437829
            ],
            [
              20.45112681,
              4.57686624
            ],
            [
              20.81677321,
              4.43222446
            ],
            [
              21.23347572,
              4.30042215
            ],
            [
              21.50303637,
              4.26105824
            ],
            [
              21.79239099,
              4.28475074
            ],
            [
              22.2938817,
              4.11785387
            ],
            [
              22.45751261,
              4.13595058
            ],
            [
              22.53478947,
              4.20433358
            ],
            [
              22.62538726,
              4.49259929
            ],
            [
              22.81780348,
              4.72495505
            ],
            [
              22.98091496,
              4.82890927
            ],
            [
              23.11237554,
              4.71248956
            ],
            [
              23.28896032,
              4.63428773
            ],
            [
              23.43184489,
              4.6346731
            ],
            [
              24.35225295,
              5.0076384
            ],
            [
              25.01029394,
              4.96071467
            ],
            [
              25.31753412,
              5.0349439
            ],
            [
              25.34678338,
              5.14923724
            ],
            [
              25.31532199,
              5.19814988
            ],
            [
              25.3494871,
              5.28270237
            ],
            [
              25.39225493,
              5.33210659
            ],
            [
              25.534077,
              5.37315388
            ],
            [
              25.83959663,
              5.21166845
            ],
            [
              26.31763684,
              5.15043485
            ]
          ]
        ]
      }
    }
  ]
}
