{
  "type": "FeatureCollection",
  "features": [
    {
      "type": "Feature",
      "properties": {
        "name": "COD Territory 1",
        "layer": "protected_governed",
        "source": "Supplemental GeoJSON prepared outside the PDF for storytelling"
      },
      "geometry": {
        "type": "Polygon",
        "coordinates": [
          [
            [
              22.0,
              -4.8
            ],
            [
              24.9,
              -4.8
            ],
            [
              24.9,
              -2.2
            ],
            [
              22.0,
              -2.2
            ],
            [
              22.0,
              -4.8
            ]
          ]
        ]
      }
    },
    {
      "type": "Feature",
      "properties": {
        "name": "COD Territory 2",
        "layer": "protected_governed",
        "source": "Supplemental GeoJSON prepared outside the PDF for storytelling"
      },
      "geometry": {
        "type": "Polygon",
        "coordinates": [
          [
            [
              18.7,
              -3.8
            ],
            [
              21.4,
              -3.8
            ],
            [
              21.4,
              -1.5
            ],
            [
              18.7,
              -1.5
            ],
            [
              18.7,
              -3.8
            ]
          ]
        ]
      }
    }
  ]
}